Origin Time       2000/10/06 13:30:00
Lat.              35.278
Long.             133.345
Depth. (km)       11
Mag.              7.3
Station Code      AIC009
Station Lat.      35.0812
Station Long.     137.1464
Station Height(m) 60
Record Time       2000/10/06 13:31:23
Sampling Freq(Hz) 100Hz
Duration Time(s)  125
Dir.              E-W
Scale Factor      2000(gal)/8388608
Max. Acc. (gal)   8.209
Last Correction   2000/10/06 13:00:00
Memo.             
[...]
  -35963   -36440   -36539   -36459   -36231   -35828   -35377   -35091 
  -34665   -34457   -33800   -33070   -32645   -32439   -32404   -32445 
  -32629   -32797   -32956   -33036   -33126   -33234   -33221   -33250 
  -33185   -32963   -32710   -32473   -32219   -31676   -30981   -30801 
  -30729   -30639   -30761   -31120   -31406   -31864   -32114   -32205 
  -32106   -32059   -32331   -32475   -32638   -32756   -32784   -32794 
  -32935   -33035   -33172   -33898   -33870   -33721   -33998   -34166 
  -34244   -34203   -34250   -34396   -34662   -35373   -36004   -35990 
  -36297   -36786   -37045   -37217   -37355   -37257   -36960   -36611 
  -35950   -35454   -35051   -34783   -34499   -34433   -34476   -34513 
  -34621   -34793   -35206   -35531   -35395   -35621   -36049   -36360 
  -36728   -37063   -37224   -37241   -37026   -36240   -36197   -35983 
  -35421   -34781   -34210   -33649   -33190   -32971   -32912   -33117 
  -33092   -32720   -32502   -32358   -32235   -32264   -32196   -32293 
  -32423   -32517   -32291   -32381   -32388   -32078   -31767   -31413 
  -31190   -31067   -31097   -31186   -30934   -31137   -31374   -31405 
  -31499   -31665   -31692   -31805   -31870   -31762   -31601   -31476 
  -31490   -31671   -32053   -32064   -31893   -31555   -31066   -30465 
  -29974   -29735   -29887   -30284   -30636   -31082   -31476   -32039 
  -32768   -33667   -34683   -35656   -36357   -37016   -37232   -37288 
  -37288   -37303   -37290   -37252   -37159   -37055   -37052   -37296 
  -37770   -38188   -38562   -38866   -38921   -38753   -38591   -38398 
  -38094   -37758   -37555   -37029   -36313   -35522   -34816   -34358 
  -34094   -34002   -33921   -34364   -34017   -33917   -34122   -34336 
  -34521   -34731   -34658   -34347   -34053   -33579   -33187   -32972 
  -32644   -32375   -32035   -31566   -31155   -30905   -30883   -30967 
  -31066   -31371   -31641   -31765   -31913   -32263   -32586   -32893 
  -33245   -33651   -33873   -34032   -34321   -34642   -35113   -35674 
  -36097   -36318   -36327   -36012   -35578   -35094   -34333   -33681 
  -33121   -32968   -32995   -33212   -33687   -34147   -34661   -35504 
  -35780   -35743   -36012   -36357   -36667   -36723   -36523   -36256 
  -35856   -35334   -34761   -34789   -34635   -34460   -34311   -33914 
  -33590   -33323   -33107   -32946   -32384   -32418   -32557   -32640 
  -32506   -32134   -31973   -31887   -31845   -31823   -32082   -32495 
  -32244   -32347   -32725   -32989   -33227   -33416   -33563   -33690 
  -33790   -34078   -33667   -33127   -32922   -32817   -32715   -32839 
  -33003   -33096   -33303   -33253   -33143   -33485   -33620   -33518 
  -33322   -33106   -32861   -32555   -32436   -32652   -32889   -33454 
  -34006   -34499   -35061   -35635   -36101   -36607   -37198   -37558 
  -37380   -37252   -37257   -36830   -36332   -36069   -35764   -35342 
  -34758   -34158   -33728   -33871   -33716   -33567   -33627   -33816 
  -33988   -34247   -34611   -34942   -35038   -35242   -34985   -34340 
  -34026   -33980   -34074   -34221   -34406   -34592   -34525   -34392 
  -34332   -33813   -33087   -32556   -31940   -31247   -30854   -30595 
  -30445   -30205   -30028   -29824   -29841   -29974   -30084   -30245 
  -30459   -30679   -30660   -30564   -30477   -30293   -30530   -30564 
  -30594   -30691   -31014   -31562   -32385   -33222   -34122   -35266 
  -35707   -35967   -36489   -36828   -37085   -37495   -37849   -38006 
  -38137   -38274   -38151   -37116   -36478   -36068   -35585   -35236 
  -34943   -34519   -34294   -34271   -34131   -34861   -35666   -36025 
  -36086   -35989   -35719   -35356   -34976   -34692   -34647   -34599 
  -34224   -34283   -34488   -34767   -35324   -35841   -36197   -36479 
  -36620   -36196   -36271   -36119   -35504   -34788   -34261   -33905 
  -33695   -33550   -33339   -32948   -32771   -32940   -32882   -32667 
  -32570   -32274   -32002   -31767   -31768   -31944   -32536   -33246 
  -34065   -34960   -35878   -36498   -36722   -36786   -36608   -36177 
  -35773   -35296   -34332   -33498   -32806   -32061   -31753   -31766 
  -32069   -32422   -32810   -33002   -33066   -33004   -32855   -32772 
  -32854   -33069   -33501   -33914   -34239   -34247   -34679   -35149 
  -35260   -35275   -35250   -35088   -34830   -34510   -34157   -33751 
  -33330   -33428   -33687   -33981   -34350   -34849   -35270   -35607 
  -35875   -36059   -36615   -36361   -35692   -35264   -34841   -34351 
  -34017   -33891   -33678   -33461   -33145   -32745   -32981   -33252 
  -33529   -33987   -34560   -35139   -35722   -36429   -36935   -36739 
  -36603   -36271   -35818   -35364   -34980   -34589   -34198   -33879 
  -33607   -33673   -33840   -33794   -33961   -34143   -34347   -34571 
  -34671   -34579   -34378   -34225   -33749   -33911   -34307   -34402 
  -34436   -34679   -34753   -34614   -34268   -33523   -32803   -32024 
  -30902   -30119   -29529   -29201   -29162   -29480   -30150   -30939 
  -31906   -32663   -33314   -33677   -33724   -33539   -33161   -32678 
  -32226   -32041   -31906   -31621   -31570   -31677   -31658   -31613 
  -31438   -31295   -31285   -31386   -31427   -31417   -31425   -31991 
  -32599   -33330   -34062   -34761   -35472   -35986   -36301   -36674 
  -37669   -38292   -38608   -39002   -39184   -39069   -38874   -38730 
  -38663   -38643   -38745   -38767   -38621   -38380   -38176   -37943 
  -37683   -37369   -37052   -36925   -36862   -36919   -36889   -36772 
  -36576   -36129   -35698   -35322   -34833   -34416   -34100   -33580 
  -33130   -33113   -33035   -33044   -33316   -33805   -34295   -34658 
  -34968   -34915   -34845   -34260   -33451   -32631   -31749   -30835 
  -30050   -29568   -29469   -29506   -29582   -29785   -30302   -30501 
  -30825   -31174   -31457   -31585   -31550   -31511   -31638   -32506 
  -32754   -32969   -33449   -33741   -33830   -33918   -33759   -33498 
  -33186   -32674   -32421   -32513   -32519   -32377   -32368   -32408 
  -32416   -32284   -32091   -31924   -31982   -32075   -32306   -32667 
  -32793   -32631   -32307   -31796   -31404   -31390   -31414   -32089 
  -33092   -33966   -34792   -35558   -36298   -36830   -37390   -37981 
  -38341   -38483   -38403   -38209   -37854   -37376   -36885   -36406 
  -35982   -35631   -35265   -34741   -34366   -34192   -34094   -34078 
  -34342   -34747   -35159   -35459   -35708   -35726   -35599   -35499 
  -35263   -35029   -34922   -34970   -35085   -35139   -35190   -35069 
  -34655   -34564   -34306   -33870   -33406   -33035   -32873   -33082 
  -33709   -34206   -34577   -34707   -34356   -34124   -33920   -33733 
  -33364   -32925   -32485   -31921   -31514   -30894   -30849   -30740 
  -30439   -30285   -30128   -30172   -30498   -31007   -31576   -32095 
  -32639   -33471   -33970   -34250   -34367   -34410   -34349   -34343 
  -34066   -33584   -32821   -32755   -32640   -32622   -32744   -32797 
  -32710   -32395   -32059   -32045   -32609   -33154   -33402   -33955 
  -34581   -35056   -35618   -36205   -36473   -36561   -36536   -36487 
  -35796   -35261   -34648   -33888   -33150   -32531   -32256   -32302 
  -32808   -33592   -34305   -34715   -34981   -35039   -34907   -34742 
  -34541   -34308   -34168   -33977   -33689   -34244   -34817   -35268 
  -35851   -36339   -36697   -36958   -37139   -37253   -37217   -37299 
  -37323   -37168   -36766   -36034   -34994   -33647   -32287   -31006 
  -29932   -29160   -29245   -29634   -30214   -31212   -32485   -33900 
  -35337   -36640   -37553   -37867   -38170   -37807   -36562   -34876 
  -32749   -30427   -28022   -25778   -23699   -21976   -20763   -20245 
  -20524   -21620   -23369   -25676   -28437   -31396   -34540   -37777 
  -41205   -44056   -46385   -48288   -49371   -49338   -48168   -45928 
  -42856   -39114   -34935   -30807   -27395   -24516   -22576   -21428 
  -20963   -21018   -21506   -22303   -23419   -24621   -26238   -27678 
  -29191   -30589   -31982   -33443   -35187   -37128   -39114   -40871 
  -42558   -43922   -44345   -44067   -43510   -42878   -42179   -41061 
  -39807   -38406   -37159   -35225   -33976   -33870   -34569   -36157 
  -38436   -40838   -43157   -44813   -45416   -44834   -43205   -40737 
  -37484   -33889   -30454   -27348   -24833   -23305   -22887   -23713 
  -25076   -27137   -29598   -32130   -34631   -36776   -38779   -40797 
  -42518   -43636   -45221   -46436   -46623   -45767   -43883   -40795 
  -37167   -33775   -30829   -28830   -27602   -26963   -26639   -26728 
  -27008   -27277   -27464   -27447   -26852   -25964   -25122   -24524 
  -24296   -24698   -25642   -27136   -29139   -31477   -34050   -36492 
  -38806   -40491   -41071   -41328   -41330   -40942   -40427   -40054 
  -39842   -39720   -39742   -39669   -39623   -39264   -38471   -37141 
  -35212   -33045   -30786   -28934   -27780   -27273   -27378   -28248 
  -29046   -29749   -30452   -30946   -31024   -30375   -29190   -27908 
  -27119   -26424   -27196   -29543   -32728   -36371   -39970   -42893 
  -44811   -45459   -44358   -41809   -38151   -33643   -28850   -24506 
  -20833   -18025   -16454   -16448   -17479   -19346   -22054   -25064 
  -28184   -31455   -34504   -37157   -39505   -41304   -42277   -42939 
  -42811   -42419   -42514   -43021   -43730   -44191   -43975   -42888 
  -40954   -38604   -36702   -35269   -34353   -34013   -33906   -33360 
  -32096   -30323   -28219   -26069   -24450   -23567   -23850   -25462 
  -28399   -32296   -36938   -42070   -47214   -51614   -54619   -55631 
  -55017   -51892   -47208   -42057   -37075   -32966   -29981   -28464 
  -28536   -30251   -32127   -34258   -36447   -38173   -39039   -39340 
  -39015   -37996   -36611   -34470   -32063   -30111   -28442   -27451 
  -27076   -27130   -27310   -27461   -27811   -28421   -29090   -30230 
  -31695   -32953   -33625   -33470   -32489   -30764   -28830   -26964 
  -25345   -24339   -24563   -25489   -26974   -28895   -31272   -33720 
  -36130   -38240   -39527   -39120   -38163   -36131   -33158   -29980 
  -27220   -25011   -23863   -23931   -25388   -27861   -31193   -34866 
  -38417   -41263   -43446   -44770   -45218   -44983   -43921   -41872 
  -38961   -36123   -32833   -29549   -27153   -25702   -25475   -26778 
  -29355   -32958   -37163   -42077   -46954   -50838   -53352   -54201 
  -53145   -50542   -47119   -43246   -39523   -36428   -34350   -33510 
  -33793   -34932   -36096   -37010   -37445   -37122   -35910   -34353 
  -31754   -28791   -26188   -24392   -23666   -24262   -26114   -28929 
  -32421   -36024   -39584   -43244   -45644   -46384   -45212   -41836 
  -36671   -30562   -24284   -18618   -14439   -11113    -8903    -8239 
   -9179   -11881   -16116   -21285   -26039   -29859   -32190   -33112 
  -33161   -32727   -31936   -30833   -29775   -28865   -28500   -29209 
  -31124   -33720   -37403   -41158   -44348   -46717   -48459   -49480 
  -49446   -48211   -45774   -41767   -37334   -33302   -29371   -26235 
  -24864   -25373   -27335   -30191   -33509   -36527   -38724   -41131 
  -43310   -45284   -47344   -49381   -51200   -52846   -54164   -54804 
  -54769   -52469   -47888   -42457   -36545   -31010   -26549   -23560 
  -21740   -20527   -19250   -17712   -15600   -13566   -11878   -10882 
  -10741   -11452   -13339   -16590   -20989   -26047   -31110   -35310 
  -38058   -39486   -39347   -37859   -35575   -33114   -30843   -29259 
  -28660   -28976   -30002   -31261   -32669   -33971   -34836   -35002 
  -34097   -32082   -29220   -26409   -24037   -22762   -22797   -23952 
  -25944   -28672   -31503   -34223   -36851   -39046   -39936   -40386 
  -40361   -39960   -39674   -40012   -41123   -43063   -46087   -49331 
  -53637   -57876   -61080   -63090   -63467   -62227   -59555   -55800 
  -51501   -47111   -42438   -37726   -33468   -29816   -26801   -24874 
  -24119   -24367   -25821   -28165   -31111   -34350   -37665   -40714 
  -43479   -45960   -47933   -49350   -50358   -50693   -50606   -49365 
  -46800   -43848   -40699   -37463   -34370   -31567   -29125   -26686 
  -23778   -20460   -17089   -13362    -9358    -5658    -2673     -845 
    -517    -1701    -4321    -8136   -13489   -20148   -26779   -32688 
  -37256   -39948   -40980   -40734   -39419   -37254   -34635   -32417 
  -30233   -28836   -28549   -29280   -30614   -32470   -34428   -36369 
  -38148   -38774   -37947   -35846   -32436   -28525   -25076   -23138 
  -22938   -23864   -25639   -27981   -31098   -34213   -37636   -41311 
  -45189   -49065   -52622   -55470   -57853   -60114   -60518   -59624 
  -58047   -55468   -52225   -48810   -45680   -42985   -40949   -39992 
  -40116   -41161   -43251   -45471   -47051   -47518   -46752   -44618 
  -41596   -38121   -34521   -31360   -28999   -27727   -27829   -29231 
  -31737   -34591   -37271   -39065   -39274   -37665   -34680   -30211 
  -25061   -19897   -15172   -11153    -8498    -7952    -9785   -13985 
  -19411   -25691   -31942   -37381   -41178   -42933   -42641   -40704 
  -37715   -34144   -31013   -28801   -27152   -26398   -26543   -27075 
  -27743   -28602   -29623   -30788   -31703   -31716   -30557   -27802 
  -23529   -18414   -13435    -9349    -6825    -5864    -6550    -8660 
  -11993   -16277   -21214   -26152   -30498   -33882   -36619   -38579 
  -39672   -40316   -41128   -41775   -42375   -43049   -43936   -45484 
  -47985   -51184   -54777   -57880   -61254   -64347   -66395   -67742 
  -68399   -67786   -65734   -62268   -57755   -52961   -48427   -43621 
  -39941   -37444   -35649   -34246   -33512   -33281   -33311   -33248 
  -33135   -31983   -30246   -28428   -26499   -24886   -23964   -23672 
  -24018   -24724   -25689   -26766   -28124   -29642   -31323   -32710 
  -33639   -33677   -32603   -30662   -28292   -25821   -23934   -22216 
  -20293   -18217   -16197   -14338   -12812   -11961   -11998   -12460 
  -13164   -14156   -15118   -15968   -17101   -18268   -19297   -20408 
  -21606   -22811   -24407   -26022   -28140   -30564   -33233   -35995 
  -38642   -41313   -44003   -46592   -48430   -50147   -51643   -51951 
  -51516   -50670   -49290   -47453   -45438   -43429   -41347   -39228 
  -38171   -37756   -38020   -39205   -40948   -42968   -45180   -47059 
  -48477   -49509   -50026   -50010   -49556   -48601   -46811   -44427 
  -42060   -39757   -37528   -35279   -33114   -31404   -30180   -29346 
  -29056   -29336   -30104   -31638   -33426   -35479   -37035   -38430 
  -39045   -38638   -37664   -36589   -35908   -35477   -34881   -34323 
  -34142   -34090   -34359   -34673   -34932   -34981   -34524   -33498 
  -31923   -30121   -28175   -26140   -24195   -22791   -21822   -21308 
  -21285   -21185   -20786   -20141   -19433   -18762   -18364   -18326 
  -18683   -19500   -20407   -21437   -22434   -23269   -24101   -24966 
  -25374   -26463   -27415   -27694   -27648   -27433   -27229   -27169 
  -27242   -27243   -27062   -27064   -27204   -27351   -27900   -28730 
  -29610   -30453   -31371   -32454   -33840   -35592   -37103   -39203 
  -41880   -44964   -47920   -50367   -52145   -53176   -53381   -52660 
  -51279   -49326   -46874   -44368   -42091   -40019   -38219   -36860 
  -35966   -35752   -36137   -37110   -38310   -39507   -40423   -40790 
  -40587   -39820   -38909   -37795   -36518   -35752   -35461   -35411 
  -35570   -36120   -36862   -37676   -38349   -38654   -38842   -38809 
  -37923   -37084   -36314   -35385   -34349   -33356   -32195   -31004 
  -29623   -28374   -26784   -25282   -24483   -24246   -24557   -25219 
  -26142   -27266   -28191   -29347   -30519   -30936   -31370   -31674 
  -31620   -31565   -31834   -32226   -32904   -33863   -34758   -35722 
  -36372   -36365   -35784   -34739   -33059   -30957   -28948   -27123 
  -25700   -24774   -24682   -25110   -26041   -27448   -29247   -31072 
  -32660   -34084   -35116   -35502   -35516   -34961   -33950   -33029 
  -32488   -32307   -32449   -32872   -33372   -33754   -33942   -33829 
  -33490   -33236   -32994   -32883   -32817   -32771   -32441   -32076 
  -31724   -31978   -32413   -32994   -33436   -33687   -33544   -33268 
  -32940   -32589   -32294   -32154   -32384   -32957   -34165   -35735 
  -37348   -39071   -40678   -41963   -43042   -44071   -43718   -43244 
  -43013   -43039   -43516   -44288   -45142   -45659   -45794   -45212 
  -44511   -43486   -42008   -40602   -39326   -38287   -37599   -37098 
  -36725   -36360   -35700   -35457   -35015   -34552   -34075   -33759 
  -33687   -33470   -33050   -32751   -32011   -31848   -32122   -32465 
  -32809   -33004   -32993   -32614   -32056   -31326   -30520   -29281 
  -27378   -25492   -23821   -22624   -22386   -23153   -24474   -26158 
  -27612   -28740   -28724   -28284   -27618   -26803   -25941   -25270 
  -24645   -24262   -24480   -25393   -27090   -28933   -30821   -32296 
  -33346   -33928   -33825   -33265   -32169   -30796   -29254   -28583 
  -27924   -27406   -27500   -28280   -29471   -30581   -31178   -31152 
  -30894   -31269   -32083   -32556   -32840   -33118   -33439   -33941 
  -34707   -35358   -36060   -36774   -37852   -38346   -38242   -37830 
  -37130   -36611   -36401   -36484   -36578   -36430   -36682   -37542 
  -38192   -38716   -39393   -40422   -41578   -42738   -43888   -44910 
  -45514   -46615   -47071   -46955   -46641   -46161   -45491   -44374 
  -42920   -41371   -39539   -37802   -36396   -35271   -34256   -33342 
  -32714   -32251   -31777   -31495   -31335   -31385   -32319   -33302 
  -34036   -34865   -35833   -36806   -37601   -38009   -38098   -38282 
  -37898   -37530   -37138   -36426   -35618   -34766   -34096   -33785 
  -33636   -32886   -31897   -31188   -30469   -29934   -29754   -29498 
  -29112   -28453   -27727   -26652   -25178   -24169   -23140   -22200 
  -21500   -20809   -20255   -20058   -20367   -21474   -23101   -24782 
  -25819   -26815   -27645   -28511   -29075   -29547   -29898   -30485 
  -31218   -32508   -33082   -33673   -34639   -35799   -37040   -37924 
  -38412   -38465   -38089   -37697   -37059   -35998   -34985   -34335 
  -34242   -34615   -35220   -35736   -36161   -36539   -36731   -37043 
  -37238   -37419   -37652   -37989   -38440   -38824   -39001   -39124 
  -39098   -39545   -40335   -40733   -40857   -40686   -40222   -39602 
  -39056   -38849   -38896   -38891   -39490   -39829   -40022   -40382 
  -40843   -41301   -41633   -41808   -41826   -41639   -41233   -40294 
  -38733   -36597   -34295   -32183   -30568   -29299   -28608   -28317 
  -28165   -28480   -28702   -28818   -28709   -28623   -28274   -27911 
  -27564   -26973   -26554   -25788   -25173   -24804   -24687   -24786 
  -24890   -25101   -25432   -25764   -25907   -25974   -26699   -27293 
  -28034   -28872   -29798   -30986   -32627   -34633   -36625   -38043 
  -39443   -40059   -39737   -38959   -37895   -36661   -35160   -33448 
  -31725   -30217   -29100   -28832   -28552   -28405   -28345   -28598 
  -28931   -29597   -30403   -31478   -32773   -34261   -35839   -37363 
  -38676   -39558   -40050   -40376   -40432   -40265   -39848   -39682 
  -39830   -40054   -40402   -40803   -41385   -41998   -42356   -42471 
  -42389   -42427   -41230   -40042   -38841   -37368   -35881   -34491 
  -33488   -32845   -32621   -32495   -32280   -32059   -31512   -30749 
