Origin Time       2000/10/06 13:30:00
Lat.              35.278
Long.             133.345
Depth. (km)       11
Mag.              7.3
Station Code      AIC009
Station Lat.      35.0812
Station Long.     137.1464
Station Height(m) 60
Record Time       2000/10/06 13:31:23
Sampling Freq(Hz) 100Hz
Duration Time(s)  125
Dir.              U-D
Scale Factor      2000(gal)/8388608
Max. Acc. (gal)   2.522
Last Correction   2000/10/06 13:00:00
Memo.             
[...]
   32141    31810    31465    31160    30853    30541    30324    30264 
   30158    30160    30350    30338    30136    29912    29657    29340 
   28976    28564    28262    28222    28379    28417    28482    28841 
   29306    29715    30183    30725    31228    31590    31760    31604 
   31428    31452    31449    31313    31143    31007    30726    30364 
   30253    30219    30300    30625    31106    31404    31594    31710 
   31577    31416    31369    31435    31590    31858    32047    32046 
   32125    32188    32059    31699    31366    31243    31229    31125 
   30937    30733    30646    30673    30602    30511    30640    30676 
   30340    29828    29445    29086    28831    28707    28572    28600 
   28828    29098    29330    29558    29745    29615    29379    29310 
   29443    29634    29993    30379    30640    30791    30894    30917 
   30826    30689    30484    30120    29822    29634    29555    29724 
   30063    30195    30106    30167    30252    30252    30275    30337 
   30354    30339    30415    30594    30814    31167    31510    31794 
   32125    32343    32185    31822    31631    31628    31593    31613 
   31706    31725    31828    31892    31766    31637    31715    31869 
   31804    31587    31217    30730    30344    30038    29684    29474 
   29520    29842    30179    30381    30351    30176    30001    29945 
   29942    30061    30336    30677    30959    31219    31449    31638 
   31751    31799    31890    31983    32042    32043    31813    31550 
   31530    31412    31176    30905    30762    30676    30668    30595 
   30458    30444    30527    30552    30489    30474    30595    30811 
   31028    31285    31435    31509    31566    31648    31685    31854 
   32228    32583    32733    32734    32652    32436    32134    31757 
   31339    30909    30482    29883    29337    29027    28777    28457 
   28429    28760    29242    29614    29852    30004    30188    30454 
   30645    30688    30534    30385    30202    29987    29833    29830 
   29820    29823    29822    29846    30053    30440    30832    31067 
   31331    31640    31842    32043    32239    32221    32136    31894 
   31404    30841    30555    30444    30370    30403    30434    30435 
   30585    30772    30814    30853    30968    31054    30988    31075 
   31440    31798    31827    31643    31327    30928    30491    30099 
   29698    29390    29295    29103    28701    28448    28528    28792 
   29120    29384    29534    29780    30230    30711    31209    31799 
   32382    32745    32919    32981    32831    32598    32556    32394 
   32173    32260    32420    32348    32168    32060    31765    31339 
   31014    30868    30771    30650    30400    30012    29794    29891 
   29862    29526    29235    29200    29215    29328    29457    29564 
   29761    30048    30156    30063    30044    30154    30301    30568 
   30988    31298    31446    31513    31437    31284    31356    31498 
   31433    31222    30950    30574    30195    30011    29834    29789 
   29930    30081    30110    30104    30280    30474    30451    30363 
   30337    30264    30104    29916    29627    29324    29277    29408 
   29539    29961    30582    30880    31048    31450    32016    32624 
   33296    33829    34020    34107    34153    33930    33639    33492 
   33332    33053    32634    31991    31150    30540    30163    29793 
   29492    29410    29351    29221    29136    29150    29175    29182 
   29248    29299    29491    29845    30135    30202    30379    30591 
   30494    30188    29991    29899    29894    29914    30038    30126 
   30351    30594    30439    30146    30018    29994    29963    30080 
   30269    30405    30515    30624    30617    30686    30855    31041 
   31062    31004    30942    31035    31314    31651    31653    31457 
   31384    31271    30954    30801    30913    31075    31116    30988 
   30636    30155    29750    29361    29060    29038    29328    29649 
   29861    30230    30530    30921    31323    31604    31622    31455 
   31264    31047    30838    30769    30727    30541    30378    30248 
   30102    29917    29820    29728    29636    29701    29740    29571 
   29456    29531    29693    29845    30095    30285    30472    30837 
   31181    31288    31354    31431    31383    31200    31067    31079 
   31231    31441    31425    31073    30863    30901    30874    30788 
   30864    31128    31373    31615    31592    31325    30850    30357 
   29889    29564    29547    29705    29937    30313    30739    31067 
   31276    31312    31283    31194    31009    30840    30531    30189 
   30062    30134    30257    30398    30459    30462    30502    30563 
   30640    31017    31592    32053    32179    32214    32306    32298 
   32127    31959    31743    31587    31625    31598    31364    31182 
   31196    31281    31369    31582    31907    32200    32459    32627 
   32476    32111    31727    31175    30463    29964    29527    29028 
   28828    28892    29173    29721    30275    30568    30717    30983 
   31210    31289    31418    31638    31886    32019    32030    31803 
   31510    31328    31136    30838    30408    30090    29800    29468 
   29260    29224    29360    29757    30233    30574    30961    31442 
   31806    31990    32231    32499    32644    32835    32973    32883 
   32585    32236    31801    31333    31055    30867    30593    30459 
   30531    30753    30983    31255    31413    31487    31641    31699 
   31499    31419    31606    31836    32119    32373    32464    32274 
   31960    31648    31211    30725    30425    30127    29798    29479 
   29103    28541    28104    27869    27859    28103    28644    29259 
   29823    30439    30934    31142    31245    31508    31711    31660 
   31581    31416    31194    30854    30342    29790    29236    29006 
   29010    29295    29603    29805    30102    30481    30703    30705 
   30769    30982    31138    31002    30812    30714    30556    30286 
   30097    30035    30084    30278    30353    30284    30447    30858 
   31065    31162    31389    31564    31712    31829    31742    31573 
   31601    31612    31334    30955    30545    30094    29756    29539 
   29264    28980    28851    28917    29075    29339    29786    30267 
   30530    30735    30976    31153    31302    31407    31546    31682 
   31913    32054    31961    32069    32231    32081    31722    31332 
   30971    30761    30771    30763    30759    30896    31133    31240 
   31319    31440    31332    31105    30646    30048    29359    28742 
   28328    27978    27913    28104    28299    28376    28460    28603 
   28699    28787    29014    29319    29651    30045    30382    30561 
   30785    30928    30748    30535    30335    30112    30046    30021 
   29923    29860    29951    29995    29963    30006    30192    30452 
   30765    31008    31237    31503    31754    31762    31547    31309 
   31087    30758    30409    30079    29804    29509    29329    29260 
   29334    29622    30101    30645    31015    31264    31528    31888 
   32134    32135    32142    32230    32271    32248    32005    31771 
   31458    31005    30460    30080    29936    29977    30115    30165 
   30145    30219    30188    30053    29912    29792    29779    29800 
   29944    30097    30428    30738    30872    30881    30873    30772 
   30628    30575    30371    30164    30037    29849    29603    29461 
   29462    29595    29865    30188    30658    31209    31762    32107 
   32095    31991    31848    31754    31664    31577    31543    31455 
   31303    31111    30967    30993    31057    30919    30691    30592 
   30541    30542    30551    30625    30803    31134    31366    31364 
   31402    31463    31491    31465    31349    31153    30861    30514 
   30000    29548    29445    29623    29872    30212    30588    30700 
   30786    30821    30766    30807    31031    31140    31126    31168 
   31225    31293    31358    31322    31387    31728    32085    32331 
   32221    31807    31351    30998    30735    30763    30968    31070 
   31077    30997    30846    30727    30550    30307    30214    30365 
   30397    30474    30668    30823    30916    31231    31627    31794 
   31943    32054    31923    31513    30918    30244    29656    29388 
   29340    29505    29912    30298    30569    30680    30765    31020 
   31287    31401    31454    31496    31547    31543    31337    30927 
   30587    30369    30161    29994    30009    30290    30725    31291 
   31721    31951    32194    32235    32003    31737    31553    31257 
   30811    30355    30102    30096    30239    30294    30295    30368 
   30487    30597    30544    30680    30913    31024    31203    31473 
   31785    32021    32122    31862    31264    30663    30013    29160 
   28370    27946    27853    27985    28347    28774    29167    29561 
   29856    29911    29985    30340    30555    30408    30127    29995 
   29990    29967    29825    29478    29309    29473    29572    29572 
   29767    30138    30450    30740    30988    31038    31221    31581 
   32050    32658    33245    33666    33751    33501    33032    32424 
   31860    31397    30905    30428    29891    29221    28392    27708 
   27455    27502    27782    28329    29081    29873    30662    31268 
   31651    31899    32185    32429    32710    33112    33391    33332 
   33021    32432    31593    30624    29515    28272    27074    26079 
   25266    24750    24749    25310    26329    27747    29249    30652 
   32042    33379    34395    34989    35188    35185    34848    34118 
   33016    31517    30072    28969    27975    27155    26785    26918 
   27197    27673    28509    29560    30603    31406    32005    32613 
   33349    34111    34731    35138    35428    35403    35052    34519 
   33897    33320    32770    32371    32103    31966    31973    31913 
   31730    31496    31196    30896    30677    30612    30575    30686 
   31057    31366    31386    31331    31093    30576    30004    29642 
   29537    29692    30132    30613    31065    31511    31817    31923 
   31972    32199    32561    32728    32675    32633    32799    33284 
   33862    34418    35039    35579    35759    35360    34663    33870 
   33051    32172    31082    29650    28043    26399    24883    23717 
   23125    23136    23762    24841    25985    26976    27849    28756 
   29382    29701    30022    30546    31027    31319    31658    32223 
   32993    33711    34053    33776    32937    31594    30049    28597 
   27598    27216    27289    27680    28205    28885    29579    30239 
   30953    31573    32029    32261    31987    31239    30344    29677 
   29293    29244    29538    30020    30457    30712    30661    30552 
   30717    30975    31331    31815    32099    32043    31762    31302 
   30654    29992    29666    29782    30309    31274    32731    34361 
   35832    36851    37164    36491    35014    32931    30572    28506 
   27194    26818    27154    28182    29713    31255    32501    33510 
   34085    34079    33583    32574    31325    30126    29089    28278 
   27954    28062    28332    28487    28519    28430    28450    28936 
   29784    30811    31913    32717    32995    32751    32171    31512 
   30892    30513    30389    30476    30781    31291    31672    31646 
   31368    31219    31115    31262    31850    32624    33292    33381 
   32546    30993    29186    27187    25044    23351    22580    22899 
   24060    25800    27618    29268    30687    31704    32435    33160 
   33813    34157    34079    33488    32385    31162    30177    29720 
   29680    29905    30482    31170    31770    32536    33396    34190 
   34872    35478    35736    35828    35861    35511    34635    33758 
   32908    31665    30193    28781    27397    26192    25515    25276 
   25459    26368    27824    29264    30385    31471    32417    32921 
   33028    32697    32057    31205    30254    29449    28848    28868 
   29247    29901    30709    31180    30978    30265    29415    28383 
   27397    26963    26939    26905    26949    27061    27183    27606 
   28419    29164    29791    30406    30829    30877    30648    30186 
   29395    28323    27408    26609    25860    25113    24373    24013 
   24330    25290    26845    28762    30831    32552    33643    34182 
   34472    34511    34366    34231    33952    33605    33112    32319 
   31111    29847    28960    28506    28754    29954    31656    33435 
   35147    36657    37563    37788    37299    36176    34880    33816 
   32910    32095    31554    31428    31509    31897    32358    32698 
   33024    33388    33390    32914    32210    31459    30535    29563 
   28681    28024    27643    27427    27149    26707    26490    27039 
   28115    29426    30768    31862    32466    32754    32652    32214 
   32060    32410    32950    33738    35018    36439    37709    38806 
   39413    39293    38602    37459    36072    34638    33321    32109 
   30823    29546    28282    27173    26321    25794    25430    25450 
   26282    27730    29155    30295    31070    31452    31392    31219 
   30984    30555    30101    29663    29008    28349    28183    28293 
   28600    29261    30098    30714    30995    30843    30406    29756 
   29031    28316    27416    26331    25401    24927    24982    25698 
   27102    29108    31531    34155    36666    38849    40422    41115 
   41314    41155    40763    39754    38274    36628    34840    33032 
   31316    29852    28680    27894    27294    26625    25943    25319 
   24662    23751    22648    21645    20813    20430    20400    20541 
   21115    22526    24477    26988    30092    33297    36247    38949 
   40765    41202    40609    39361    37380    35055    33048    31589 
   30843    30870    31540    32404    33167    33691    33478    32358 
   31083    29778    28486    27764    27783    28233    29055    29950 
   30563    30935    31307    31668    31676    31621    31667    31298 
   30474    29682    29295    29242    29555    30199    30710    31052 
   31206    30940    30176    29082    27850    26412    25078    24141 
   23561    23455    24007    25084    26372    27890    29464    30565 
   31272    31793    32165    32728    33707    34601    35215    35782 
   36025    35607    34909    34403    33980    33827    34051    34020 
   33503    32732    31877    30908    30234    30114    30389    30949 
   31934    33089    33736    33656    32904    31585    30005    28771 
   27946    27400    27339    27651    28086    28778    29823    31010 
   32018    32943    33651    33887    33823    33389    32584    31559 
   30557    30007    29801    29576    29134    28473    27712    26986 
   26212    25659    25563    25735    26119    26888    27935    28957 
   29608    29851    29609    29181    28754    27892    26529    24920 
   23337    21835    20906    20860    21533    22696    24283    25876 
   26971    27624    28162    28807    29536    30456    31416    32090 
   32522    32606    32357    32187    32490    33302    34471    35811 
   37189    38428    39424    39975    40023    39878    39766    39435 
   38738    37968    37130    35929    34617    33604    32875    32338 
   32087    31786    31441    31088    30838    30780    31010    31381 
   31576    31320    30566    29304    27712    26191    24757    23421 
   22535    22199    22283    22674    23677    25393    27508    29979 
   32248    33740    34353    34240    33486    32274    30847    29361 
   27936    26664    25861    25589    26101    27469    29386    31537 
   33432    34791    35096    34690    34243    33675    33031    32421 
   31820    31249    31126    31602    32420    33315    34250    34772 
   34903    34591    33907    33046    32299    31717    31411    31383 
   31487    31562    31425    31277    31196    31381    31932    32921 
   34184    35375    36170    36418    36122    35295    33931    32096 
   30123    28453    26939    25739    24967    24637    24714    25010 
   25422    26053    26955    28025    29033    29781    30132    30203 
   29898    29436    29183    29318    29904    30848    31692    32317 
   32990    33666    34157    34462    34881    35670    36410    36890 
   36782    36359    35903    35282    34228    32815    31252    29744 
   28286    27166    26508    26220    26408    26894    27604    28305 
   28812    29292    29764    30143    30523    30921    31112    31090 
   30742    29932    28945    28132    27547    27129    27121    27330 
   27282    27256    27597    28002    28341    28748    29029    29236 
   29310    29012    28315    27552    26826    26148    25658    25385 
   25349    25583    25936    26297    26820    27464    28302    29547 
   30994    32698    34277    35342    35924    35961    35513    34591 
   33425    31987    30454    29079    27852    27081    26870    27019 
   27404    28068    28839    29590    30550    31636    32607    33540 
   34441    34999    34871    34343    33939    33756    33864    34278 
   34830    35459    36217    36714    36709    36153    35056    33474 
   31764    30109    28643    27562    27148    27018    27030    27157 
   27350    27588    27879    28480    29486    30930    32337    33419 
   34094    34256    34146    33824    33369    32853    32435    31853 
   31243    30636    29951    29264    28704    28511    28873    29746 
   30777    31636    32268    32658    32563    32192    31827    31512 
   31253    31013    30546    29974    29774    30121    30658    31179 
   31767    32297    32886    33469    33790    33956    34129    34311 
   34423    34489    34686    35057    35590    36138    36590    36934 
   37135    37252    37128    36826    36510    36116    35599    35067 
   34656    34292    33919    33575    33226    32871    32828    33065 
   33409    33781    34269    34646    34805    34794    34640    34295 
   33935    33604    33017    32325    32012    31916    31842    31530 
   31021    30392    29810    29263    28646    28115    27762    27595 
   27457    27337    27259    27190    27196    26998    26593    26191 
   25923    25522    25127    24984    25202    25959    27104    28251 
   28996    29334    29444    29388    29093    28721    28378    27999 
   27675    27529    27479    27354    27198    27253    27726    28429 
   29059    29250    29172    29227    29472    29802    30102    30336 
   30579    30948    31290    31520    31610    31257    30281    29104 
   28086    27298    26474    25641    25159    25142    25311    25607 
   25951    26416    27009    27757    28725    29814    30981    31952 
   32850    33632    34246    34773    35098    35298    35419    35485 
   35344    34842    33875    32716    31633    30868    30347    30013 
   29833    29786    29872    29994    30108    30432    30953    31708 
   32600    33350    33817    33969    33796    33424    32992    32589 
   32265    32099    32039    31644    30953    29985    28856    27815 
   26910    26103    25374    24994    25056    25375    25828    26121 
   26616    27605    28745    29537    29657    29234    28785    28541 
   28294    27778    27110    26862    26995    27256    27462    27697 
   27931    28257    28725    29110    29348    29499    29906    30883 
