Origin Time       2000/10/06 13:30:00
Lat.              35.278
Long.             133.345
Depth. (km)       11
Mag.              7.3
Station Code      AIC009
Station Lat.      35.0812
Station Long.     137.1464
Station Height(m) 60
Record Time       2000/10/06 13:31:23
Sampling Freq(Hz) 100Hz
Duration Time(s)  125
Dir.              N-S
Scale Factor      2000(gal)/8388608
Max. Acc. (gal)   7.061
Last Correction   2000/10/06 13:00:00
Memo.             
[...]
  -10765   -10809   -10790   -10519   -10090    -9620    -9081    -8598 
   -8163    -7767    -7411    -7020    -6617    -6314    -6122    -6069 
   -6361    -6873    -7451    -8007    -8509    -8982    -9437    -9963 
  -10375   -10732   -10949   -10990   -11039   -10972   -10923   -10816 
  -10761   -10800   -10825   -10866   -10978   -11286   -11498   -11791 
  -12158   -12539   -12806   -12996   -13113   -13159   -13198   -13232 
  -13083   -12734   -12505   -12381   -12308   -12525   -12938   -13306 
  -13634   -13860   -13740   -13569   -13360   -13014   -12608   -12151 
  -11643   -11168   -10685   -10337   -10257   -10204   -10325   -10594 
  -10750   -10980   -11239   -11413   -11516   -11549   -11523   -11401 
  -11039   -10686   -10313    -9917    -9649    -9352    -9056    -9010 
   -9173    -9567    -9957   -10352   -10808   -11360   -11961   -12408 
  -12675   -12991   -13228   -13177   -13051   -12981   -12730   -12356 
  -12134   -12006   -11881   -11825   -11857   -11790   -11784   -11942 
  -12166   -12540   -13185   -13707   -14061   -14431   -14647   -14592 
  -14408   -14154   -13698   -13234   -12787   -12237   -11700   -11229 
  -10917   -10579   -10201   -10127    -9834    -9471    -9344    -9390 
   -9468    -9653   -10115   -10575   -10958   -11516   -11891   -11777 
  -11716   -11689   -11263   -10694   -10269    -9806    -9410    -9296 
   -9145    -9179    -9413    -9688    -9922   -10189   -10526   -10801 
  -10921   -11024   -11010   -10897   -10706   -10623   -10493   -10312 
  -10101    -9832    -9454    -9195    -9030    -8866    -8743    -8704 
   -8632    -8491    -8495    -8620    -8785    -9235   -10009   -10861 
  -11519   -11975   -12392   -12573   -12695   -12776   -12848   -13071 
  -13277   -13233   -13041   -12610   -12094   -11685   -11486   -11415 
  -11364   -11326   -11336   -11310   -11319   -11636   -12220   -12886 
  -13630   -14230   -14526   -14583   -14415   -13954   -13411   -13008 
  -12675   -12265   -11985   -11838   -11715   -11668   -11721   -11638 
  -11464   -11278   -11207   -11087   -10933   -10725   -10403   -10142 
  -10129   -10267   -10379   -10652   -10993   -11212   -11431   -11472 
  -11274   -10948   -10681   -10449   -10284   -10233   -10057    -9980 
   -9843    -9761    -9713    -9832   -10121   -10261   -10330   -10388 
  -10462   -10498   -10365   -10326   -10443   -10737   -11102   -11462 
  -11712   -11707   -11644   -11746   -11473   -11296   -11148   -10789 
  -10316    -9865    -9536    -9392    -9385    -9383    -9621   -10086 
  -10547   -10912   -11269   -11490   -11758   -12079   -12332   -12550 
  -12556   -12623   -12482   -12285   -12144   -12080   -12040   -12107 
  -12201   -12336   -12513   -12828   -13206   -13297   -13249   -13192 
  -13278   -13449   -13717   -14128   -14527   -14746   -15101   -15192 
  -15097   -14919   -14653   -14208   -13435   -12570   -11675   -11088 
  -10423    -9947    -9927   -10127   -10456   -10791   -11069   -11191 
  -11172   -10929   -10561   -10302   -10089    -9986   -10105   -10372 
  -10691   -11198   -11655   -11927   -12234   -12323   -12291   -12083 
  -11755   -11211   -10474    -9692    -8973    -8488    -8208    -8216 
   -8548    -8981    -9568   -10097   -10355   -10399   -10268    -9903 
   -9336    -8660    -8075    -7489    -6923    -6474    -6122    -6045 
   -6345    -6877    -7697    -8674    -9459   -10009   -10462   -10890 
  -11193   -11338   -11490   -11437   -11262   -11098   -10865   -10694 
  -10458   -10101    -9709    -9568    -9584    -9608    -9824   -10192 
  -10594   -11210   -12000   -12667   -13076   -13381   -13680   -13786 
  -13643   -13495   -13203   -12798   -12645   -12468   -12319   -12452 
  -12768   -13198   -13637   -13971   -14215   -14379   -14285   -14135 
  -13888   -13642   -13421   -13163   -12850   -12651   -12570   -12470 
  -12540   -12446   -12294   -12141   -12035   -11730   -11193   -10710 
  -10266    -9900    -9819    -9930    -9969   -10015   -10149   -10276 
  -10433   -10670   -10786   -10723   -10679   -10529   -10306   -10256 
  -10421   -10748   -11241   -11754   -12080   -12051   -11779   -11479 
  -10737   -10003    -9507    -9188    -8959    -8931    -9143    -9443 
   -9800   -10287   -10622   -10468   -10419   -10262    -9935    -9514 
   -8927    -8134    -7310    -6774    -6506    -6415    -6776    -7389 
   -8187    -9253   -10371   -11352   -12259   -12984   -13375   -13412 
  -13314   -13212   -12989   -12738   -12467   -12063   -11672   -11438 
  -11233   -11082   -10895   -10794   -10738   -10780   -11075   -11596 
  -12238   -13008   -13682   -14210   -14577   -14736   -14762   -14784 
  -14857   -14932   -14938   -14996   -15045   -15241   -15664   -16096 
  -16301   -16283   -16145   -15814   -15285   -14701   -14273   -13887 
  -13793   -13823   -13739   -13838   -14044   -14088   -14063   -14147 
  -14150   -13981   -13606   -12947   -12113   -11049   -10009    -9146 
   -8283    -7613    -7100    -6598    -6244    -6159    -6141    -6416 
   -7032    -7661    -8335    -8895    -9360    -9604    -9596    -9530 
   -9310    -8795    -8207    -7484    -6616    -5891    -5306    -4910 
   -4916    -5371    -5978    -6807    -7683    -8506    -9352   -10115 
  -10793   -11281   -11576   -11676   -11514   -11230   -10954   -10734 
  -10605   -10663   -10887   -11249   -11744   -12343   -12662   -12651 
  -12931   -13074   -13081   -13236   -13657   -14204   -14840   -15609 
  -16380   -17164   -17921   -18473   -18837   -19032   -18807   -18126 
  -17122   -15776   -14189   -12625   -11186   -10051    -9311    -8898 
   -8917    -9283    -9884   -10588   -11274   -11885   -12470   -12702 
  -12635   -12455   -12201   -11793   -11418   -11164   -10915   -10717 
  -10641   -10458   -10287    -9816    -9104    -8193    -7349    -6563 
   -5976    -5803    -6056    -6388    -6838    -7535    -8318    -9365 
  -10493   -11289   -11600   -11410   -10811    -9966    -9195    -8489 
   -8203    -8295    -8567    -8998    -9374    -9753   -10212   -10661 
  -11020   -11405   -11819   -11992   -12062   -12143   -12245   -12441 
  -12675   -12748   -12615   -12418   -12411   -12222   -12161   -12267 
  -12445   -12777   -13415   -14115   -14846   -15391   -15930   -16260 
  -16334   -16374   -16206   -15786   -15155   -14334   -13529   -12727 
  -12017   -11459   -11233   -11329   -11607   -12122   -12789   -13347 
  -13777   -13979   -13799   -13700   -13523   -13261   -12987   -12707 
  -12548   -12480   -12365   -12370   -12328   -11965   -11357   -10907 
  -10382    -9931    -9669    -9388    -9182    -9222    -9287    -9716 
  -10012   -10426   -11241   -12188   -13129   -14062   -14850   -15335 
  -15410   -14962   -14080   -12805   -11390    -9962    -8624    -7458 
   -6469    -5688    -5105    -4776    -4762    -5151    -5800    -6679 
   -7603    -8330    -8935    -9406    -9839   -10518   -11181   -11921 
  -12646   -13104   -13169   -12865   -12258   -11364   -10274    -9309 
   -8475    -7796    -7675    -7769    -8078    -8716    -9542   -10333 
  -11000   -11537   -11955   -12227   -12268   -12206   -12039   -11592 
  -10980   -10315    -9570    -8890    -8496    -8218    -7954    -8146 
   -8633    -9309   -10340   -11485   -12584   -13515   -14213   -14716 
  -15202   -15715   -16313   -16937   -17661   -18355   -19030   -19522 
  -19832   -19874   -19668   -19090   -17758   -16207   -14518   -12880 
  -11465   -10315    -9691    -9549    -9832   -10627   -11722   -12831 
  -13953   -14956   -15505   -15734   -15559   -14965   -14052   -13113 
  -12187   -11217   -10512   -10024    -9502    -8905    -8244    -7572 
   -6874    -6153    -5412    -4853    -4386    -4165    -4290    -4823 
   -5793    -7052    -8427    -9785   -11180   -11905   -11925   -11549 
  -10492    -8755    -6676    -4411    -2124     -382      516      451 
    -389    -2253    -4803    -7515   -10310   -12947   -15278   -17305 
  -18746   -19608   -19912   -19641   -18825   -17470   -16064   -14665 
  -13402   -12415   -11655   -10823    -9854    -8714    -7472    -6232 
   -5304    -4852    -4646    -4786    -5246    -5767    -6413    -7518 
   -8735    -9935   -11230   -12531   -13719   -14769   -15845   -16841 
  -17696   -18233   -18267   -17569   -16287   -14595   -12568   -10257 
   -7833    -5273    -2758     -735      734     1377     1213      322 
   -1029    -2783    -4930    -7032    -8839   -10192   -10992   -11332 
  -11417   -11671   -12269   -13341   -14830   -16579   -18524   -20498 
  -22077   -23464   -24024   -23450   -21807   -19189   -15774   -11970 
   -8047    -4324    -1048     1777     4323     6157     7267     7547 
    7011     5664     3493      420    -3306    -7486   -12073   -16188 
  -19285   -20942   -20967   -19407   -16872   -14130   -11790   -10251 
   -9731   -10082   -11190   -12943   -15074   -17316   -19489   -21175 
  -22060   -22177   -21616   -20328   -18958   -17816   -17138   -16871 
  -16987   -17181   -17198   -17039   -16426   -15739   -14986   -13886 
  -12702   -11518   -10439    -9537    -8877    -8624    -8870    -9506 
  -10016   -10759   -11484   -11979   -12479   -13336   -14845   -16951 
  -19473   -22137   -24365   -26304   -27701   -28111   -27369   -25378 
  -22079   -17699   -12689    -7496    -3056       -2     1248      295 
   -2566    -6762   -11599   -16252   -20060   -22676   -24040   -24537 
  -24171   -23288   -22016   -20795   -19949   -19744   -20418   -21522 
  -22749   -23172   -22160   -19991   -17021   -13684   -10783    -8787 
   -8071    -8474    -9991   -12567   -15625   -18852   -21959   -24171 
  -24843   -23925   -21481   -17910   -13973   -10314    -7215    -4652 
   -2929    -2119    -2220    -3018    -4082    -4833    -4949    -4391 
   -3116    -1689     -801     -835    -1823    -3638    -5885    -8155 
  -10217   -11877   -12698   -12265   -10463    -7589    -3864      126 
    3714     6616     8360     8430     7034     4530     1293    -1942 
   -4536    -6265    -6873    -6682    -6113    -5861    -6362    -7607 
   -9854   -12577   -15075   -17170   -18791   -19650   -19547   -18622 
  -17069   -15075   -12928   -10960    -9390    -8596    -8733    -9524 
  -10623   -11913   -13177   -14216   -14730   -15133   -15333   -15243 
  -15111   -14871   -14548   -14323   -14605   -15545   -16891   -18429 
  -19518   -19469   -18448   -16829   -15109   -13692   -12712   -11986 
  -11161   -10125    -7993    -5110    -2344        8     1740     2400 
    1974      804    -1042    -3675    -6659    -9688   -12870   -16021 
  -18754   -20771   -21670   -20971   -18492   -14528    -9569    -4244 
     650     4655     7537     9001     9106     8082     5991     2810 
   -1014    -5153    -9663   -13981   -17536   -20151   -21757   -22063 
  -21094   -19380   -17024   -14276   -11594    -9678    -8466    -7852 
   -7651    -7212    -6574    -5954    -5510    -5361    -5768    -6579 
   -7196    -7442    -7416    -7582    -8270    -9706   -12139   -15144 
  -18435   -22031   -25061   -27311   -28890   -29697   -29655   -28776 
  -26874   -23719   -19685   -15083   -10361    -6079    -2917    -1231 
   -1146    -2986    -6322   -10428   -14599   -18108   -20558   -21919 
  -22596   -22617   -21793   -19993   -17148   -13691   -10331    -7774 
   -6213    -5759    -6421    -8088   -10431   -12988   -15329   -16964 
  -17470   -16728   -14703   -11546    -8192    -5237    -2639     -656 
     586     1286     1521     1151      339     -601    -1690    -2780 
   -3545    -4057    -4631    -5247    -5896    -6693    -7435    -8150 
   -8811    -9074    -8880    -8404    -8106    -8263    -9014   -10428 
  -12177   -13618   -14616   -14593   -13067   -10441    -7285    -4030 
   -1399       68      116    -1118    -3692    -7542   -12071   -16867 
  -21613   -25837   -29233   -31777   -33553   -34585   -34936   -34485 
  -33148   -30843   -27573   -23672   -19364   -14905   -11011    -7955 
   -5829    -4430    -3554    -3326    -3692    -4507    -5499    -6555 
   -7229    -6998    -5616    -3127      162     3702     6913     9020 
    9505     8588     5976     1850    -3178    -8488   -13654   -18091 
  -21609   -24364   -26147   -27021   -27035   -26296   -24769   -22635 
  -20384   -18491   -16985   -16070   -15590   -15268   -14980   -14054 
  -12456   -10376    -7985    -5709    -3682    -2138    -1445    -1713 
   -2813    -4771    -7460   -10379   -13513   -16874   -20092   -23532 
  -27110   -30719   -34060   -36700   -38151   -37979   -36174   -33072 
  -28689   -23838   -19254   -14938   -11222    -8653    -7164    -7060 
   -8282   -10526   -13397   -16392   -18321   -18970   -18274   -16580 
  -14388   -12202   -10458    -9382    -8679    -8133    -7558    -6946 
   -6141    -5092    -3582    -1535      569     2432     3917     4771 
    5001     5025     4795     3687     1396    -2375    -7655   -13863 
  -19918   -24729   -27628   -28132   -26379   -22920   -18244   -12898 
   -7202    -1628     3443     7325     9668    10205     9284     7470 
    5300     3262     1601      276     -680    -1397    -2343    -3560 
   -4931    -6599    -8601   -10749   -12928   -14969   -16470   -17274 
  -17457   -17449   -17190   -16525   -15421   -13943   -12265   -10854 
  -10169   -10349   -11441   -13312   -15386   -16876   -17651   -17580 
  -16809   -15622   -13951   -11806    -9257    -6923    -4259    -2043 
    -905     -771    -1615    -3413    -5679    -8078   -10681   -13481 
  -16427   -19703   -23453   -27370   -31046   -34269   -36956   -38972 
  -40311   -40873   -40261   -38407   -35201   -30821   -25704   -20770 
  -16733   -13793   -12011   -11059   -10322    -9182    -7570    -5514 
   -3214    -1093      577     1853     2471     1997      433    -2216 
   -5501    -9208   -12871   -16288   -19135   -21059   -21848   -21463 
  -19794   -17288   -14211   -10998    -7843    -4988    -2479     -378 
    1405     2665     3108     2668     1611     -404    -2203    -3440 
   -4137    -4209    -3740    -3345    -2853    -2131    -1050      181 
    1412     2283     2305     1506      414     -493    -1760    -3136 
   -4468    -6015    -7677    -9259   -10561   -11328   -11585   -11451 
  -11407   -11724   -12471   -13751   -15204   -16519   -17657   -18709 
  -19484   -19961   -20080   -19769   -18983   -17839   -16702   -16068 
  -16069   -16576   -17674   -19297   -21215   -23177   -24747   -25644 
  -25620   -24413   -22317   -19596   -16407   -12979    -9608    -6817 
   -5089    -4491    -4831    -5738    -7016    -8279    -9496   -10819 
  -12293   -13725   -14821   -15528   -16008   -16192   -16244   -16152 
  -15805   -14955   -13519   -11634    -9386    -6958    -4525    -2344 
    -712       79      198     -245    -1272    -2709    -4149    -5566 
   -7089    -8637   -10225   -11508   -12588   -13413   -13789   -13743 
  -13303   -12497   -11493   -10346    -8986    -7298    -5169    -2794 
    -602     1043     2213     2708     2562     1838      587    -1344 
   -4012    -7653   -11937   -16405   -20452   -23582   -25792   -26962 
  -27215   -26853   -26198   -25413   -24722   -24430   -24299   -24125 
  -23979   -23651   -22981   -22077   -21306   -20957   -21391   -22536 
  -23904   -25075   -25917   -26336   -26284   -25870   -24987   -23522 
  -21270   -18552   -15726   -13036   -11017    -9981    -9606    -9747 
  -10312   -11054   -11927   -12866   -13930   -14937   -15949   -16757 
  -17090   -16873   -15885   -14136   -12003    -9489    -6758    -4312 
   -2419    -1145     -224      365      739     1009     1248     1594 
    2221     3104     4163     5273     6408     7518     8529     9342 
   10068    10674    10894    10929    10754    10220     9488     8730 
    7794     6832     5888     4573     2824     1088     -470    -1869 
   -2856    -3535    -4242    -5048    -6057    -7405    -9445   -11846 
  -14504   -17193   -19481   -20912   -21432   -21259   -20552   -19278 
  -17498   -15273   -12665   -10556    -9347    -8945    -9674   -11392 
  -13686   -16430   -19413   -22531   -25289   -27321   -28254   -27916 
  -26769   -25163   -23349   -21644   -20494   -19851   -19957   -20941 
  -22531   -24282   -26050   -27496   -28319   -28522   -28266   -27723 
  -26503   -24998   -23280   -21309   -19372   -17699   -16189   -15181 
  -14787   -14700   -14992   -15335   -15330   -15060   -14448   -13382 
  -11695    -9431    -6885    -4390    -2199     -290     1401     3080 
    4735     5879     6595     6874     6355     5271     3916     2142 
     258    -1693    -3805    -5819    -7497    -8565    -8943    -8572 
   -7611    -6255    -4777    -3123    -1444       97     1601     2997 
    4106     5036     5666     6097     6299     6425     6270     5647 
    4442     2453       35    -2505    -5092    -7526    -9717   -11787 
  -13463   -15145   -16859   -18360   -19551   -20456   -20924   -21081 
  -21095   -20915   -20635   -20372   -20079   -19634   -19105   -18430 
  -17552   -16513   -15120   -13708   -12441   -11386   -10423    -9564 
   -9044    -8805    -9131    -9699   -10177   -10578   -10421   -10412 
  -10787   -11447   -12426   -13869   -15441   -16690   -17565   -18072 
  -17986   -17563   -17054   -16422   -16058   -15788   -15601   -15492 
  -15167   -14562   -13664   -12492   -11369   -10588   -10359   -10461 
  -10657   -10757   -10859   -11104   -11573   -12188   -12944   -13714 
  -14332   -14707   -14997   -15090   -15111   -15003   -14850   -14417 
  -13225   -11767   -10094    -8459    -7267    -6521    -6309    -6435 
   -6905    -7713    -8820    -9928   -10925   -11670   -12243   -12655 
  -12753   -12573   -12142   -11462   -10810   -10575   -10606   -10924 
  -11419   -11945   -12498   -13015   -13379   -13421   -13208   -12726 
  -11914   -10743    -9472    -8452    -7628    -6746    -5856    -5342 
   -5345    -5875    -6770    -7865    -9025   -10225   -11441   -12451 
  -13175   -13682   -14015   -14116   -14195   -14077   -13657   -12989 
  -12094   -11122   -10309    -9467    -8688    -8189    -8092    -8256 
   -8309    -8143    -7840    -7461    -7211    -7013    -6745    -6390 
   -6033    -5827    -5647    -5855    -6642    -7735    -9010   -10219 
  -11168   -11994   -12645   -12975   -13014   -12950   -12874   -12693 
  -12440   -11991   -11287   -10595   -10038    -9595    -9474    -9405 
   -9186    -8678    -8235    -7996    -7911    -7996    -8211    -8448 
   -9099   -10018   -10973   -11846   -12681   -13546   -14241   -14893 
  -15546   -16023   -16212   -16195   -16278   -16372   -16536   -16736 
  -16811   -16834   -16701   -16083   -14904   -13436   -11898   -10333 
   -8770    -7181    -5753    -4753    -4382    -4375    -4650    -4743 
   -4482    -4712    -5393    -6351    -7284    -8282    -9530   -11063 
  -12693   -14317   -15886   -17273   -18409   -19042   -18931   -18312 
  -17495   -16371   -15180   -14056   -12975   -11915   -11151   -10816 
  -10765   -10873   -10982   -11100   -11136   -11223   -11028   -10507 
   -9818    -9237    -8932    -8992    -9315    -9776   -10295   -11082 
  -11912   -12746   -13369   -13710   -13882   -13989   -14217   -14675 
  -15321   -16017   -16521   -16912   -16910   -16476   -15533   -14296 
  -12980   -11507   -10186    -9103    -8214    -7473    -7207    -7460 
   -7774    -8011    -8247    -8359    -8356    -8173    -7864    -7592 
   -7499    -7801    -8371    -9197   -10280   -11587   -12956   -14184 
