Origin Time       2000/10/06 13:30:00
Lat.              35.278
Long.             133.345
Depth. (km)       11
Mag.              7.3
Station Code      SMN002
Station Lat.      35.4714
Station Long.     133.0682
Station Height(m) 2
Record Time       2000/10/06 13:30:26
Sampling Freq(Hz) 100Hz
Duration Time(s)  240
Dir.              N-S
Scale Factor      2000(gal)/8388608
Max. Acc. (gal)   150.514
Last Correction   2000/10/06 13:00:00
Memo.             
[...]
  -28652   -28648   -28689   -28637   -28658   -28655   -28656   -28698 
  -28725   -28741   -28742   -28804   -28761   -28753   -28758   -28767 
  -28700   -28709   -28718   -28709   -28676   -28688   -28721   -28729 
  -28749   -28698   -28732   -28767   -28785   -28758   -28783   -28745 
  -28725   -28740   -28702   -28701   -28742   -28750   -28710   -28668 
  -28632   -28658   -28698   -28717   -28703   -28683   -28677   -28658 
  -28665   -28667   -28728   -28731   -28677   -28669   -28618   -28634 
  -28631   -28673   -28697   -28712   -28720   -28704   -28672   -28719 
  -28766   -28753   -28815   -28769   -28753   -28787   -28811   -28789 
  -28747   -28765   -28777   -28787   -28743   -28767   -28767   -28777 
  -28741   -28729   -28700   -28678   -28672   -28724   -28769   -28726 
  -28696   -28688   -28706   -28692   -28685   -28688   -28679   -28684 
  -28736   -28717   -28635   -28664   -28615   -28627   -28651   -28651 
  -28668   -28653   -28675   -28738   -28748   -28755   -28738   -28766 
  -28739   -28741   -28795   -28787   -28748   -28792   -28761   -28734 
  -28735   -28690   -28708   -28729   -28770   -28737   -28714   -28724 
  -28739   -28727   -28786   -28786   -28806   -28742   -28780   -28760 
  -28721   -28709   -28680   -28695   -28717   -28703   -28684   -28716 
  -28703   -28640   -28689   -28725   -28720   -28684   -28712   -28687 
  -28696   -28695   -28693   -28643   -28645   -28672   -28634   -28647 
  -28619   -28658   -28697   -28688   -28683   -28721   -28735   -28734 
  -28736   -28732   -28800   -28770   -28680   -28715   -28729   -28760 
  -28762   -28753   -28765   -28749   -28745   -28765   -28758   -28771 
  -28755   -28737   -28739   -28729   -28746   -28734   -28699   -28684 
  -28655   -28646   -28664   -28690   -28696   -28674   -28646   -28673 
  -28688   -28666   -28734   -28713   -28645   -28649   -28626   -28630 
  -28718   -28741   -28740   -28735   -28720   -28694   -28696   -28724 
  -28726   -28757   -28805   -28775   -28777   -28817   -28767   -28731 
  -28736   -28738   -28741   -28747   -28751   -28703   -28708   -28725 
  -28690   -28743   -28729   -28657   -28657   -28697   -28734   -28718 
  -28682   -28685   -28713   -28677   -28669   -28665   -28707   -28714 
  -28697   -28680   -28648   -28686   -28701   -28651   -28670   -28696 
  -28667   -28718   -28695   -28690   -28706   -28737   -28697   -28731 
  -28763   -28735   -28736   -28732   -28751   -28760   -28833   -28795 
  -28770   -28778   -28756   -28787   -28799   -28807   -28756   -28710 
  -28701   -28690   -28644   -28728   -28761   -28712   -28694   -28690 
  -28692   -28726   -28730   -28672   -28615   -28648   -28601   -28655 
  -28697   -28696   -28742   -28740   -28638   -28619   -28695   -28700 
  -28740   -28722   -28723   -28713   -28714   -28695   -28726   -28722 
  -28751   -28757   -28720   -28744   -28737   -28764   -28753   -28747 
  -28799   -28822   -28780   -28720   -28779   -28778   -28739   -28747 
  -28711   -28717   -28707   -28691   -28692   -28704   -28683   -28763 
  -28780   -28783   -28750   -28748   -28720   -28715   -28743   -28685 
  -28699   -28720   -28667   -28670   -28606   -28654   -28734   -28755 
  -28708   -28675   -28704   -28697   -28684   -28689   -28739   -28706 
  -28659   -28654   -28697   -28732   -28694   -28740   -28751   -28723 
  -28738   -28764   -28733   -28735   -28779   -28769   -28743   -28691 
  -28691   -28699   -28739   -28696   -28747   -28757   -28764   -28724 
  -28708   -28823   -28800   -28758   -28814   -28806   -28725   -28699 
  -28655   -28651   -28652   -28681   -28662   -28643   -28668   -28634 
  -28619   -28685   -28679   -28699   -28712   -28688   -28733   -28677 
  -28675   -28667   -28647   -28592   -28590   -28595   -28713   -28707 
  -28718   -28747   -28723   -28754   -28761   -28754   -28795   -28866 
  -28812   -28795   -28783   -28750   -28728   -28723   -28718   -28730 
  -28762   -28780   -28748   -28756   -28710   -28739   -28793   -28830 
  -28692   -28605   -28809   -28772   -28638   -28920   -28861   -28574 
  -28674   -28568   -28382   -28721   -28961   -28726   -28784   -29167 
  -28657   -28818   -29395   -29034   -28842   -28872   -28718   -29020 
  -28481   -27751   -29000   -28042   -28799   -31886   -31099   -27631 
  -27408   -28593   -28294   -28851   -29867   -29117   -26886   -27589 
  -29547   -28307   -28896   -30633   -29010   -29214   -30029   -29369 
  -28814   -27770   -28771   -27478   -26253   -30038   -29709   -24940 
  -25709   -27145   -28483   -30674   -28897   -28428   -29303   -29754 
  -29349   -29124   -28463   -26840   -29459   -31051   -29630   -29774 
  -29527   -29160   -29756   -28514   -29957   -31963   -29674   -27545 
  -26077   -27702   -28908   -26160   -27991   -28499   -28113   -31528 
  -31017   -30086   -31814   -30635   -28678   -29435   -29825   -28688 
  -28668   -27275   -25972   -24803   -24320   -25414   -28737   -29016 
  -27911   -28322   -27082   -28699   -32573   -34981   -34748   -29639 
  -25441   -27564   -30208   -28347   -29417   -31238   -29639   -29848 
  -29961   -27567   -26579   -27857   -29330   -33085   -34057   -31892 
  -32096   -31079   -26657   -24857   -30164   -33558   -24035   -19650 
  -27455   -27923   -25009   -30480   -29424   -31604   -33329   -27624 
  -27749   -28824   -28114   -31333   -29511   -22992   -23786   -28312 
  -28948   -24789   -23099   -33701   -35123   -28773   -32461   -31674 
  -25450   -33447   -37827   -32120   -33639   -31503   -22795   -24904 
  -25115   -23022   -34233   -41162   -35964   -31528   -36088   -43718 
  -36424   -27324   -28897   -23406   -16403   -24180   -30599   -22914 
  -20254   -18758   -11105   -13528   -29784   -30425   -31028   -36591 
  -27430   -22879   -28759   -27285   -22825   -21243   -22316   -22349 
  -28669   -27726   -23307   -30859   -29787   -24278   -43172   -54363 
  -41725   -33536   -31125   -29681   -28554   -31368   -35380   -31926 
  -29036   -29383   -33279   -36087   -34404   -36795   -37897   -32128 
  -28192   -21017   -17173   -18003   -15398   -21502   -28762   -27434 
  -24357   -24956   -22601   -15624   -16828   -26883   -29225   -26105 
  -28813   -27258   -31102   -35709   -27286   -25750   -27334   -17899 
  -10765   -13918   -21010   -30690   -36193   -38706   -40256   -37835 
  -37063   -33459   -34220   -45777   -47170   -39426   -42375   -36506 
  -26818   -30974   -27329   -19635   -31762   -43024   -39641   -32131 
  -28219   -29176   -30526   -35908   -44282   -37362   -25548   -17412 
   -7037    -2422    -9450   -19296   -16440   -17544   -24213   -21324 
  -16470   -15265   -15049   -19279   -34346   -44770   -44138   -42441 
  -38359   -27378   -22234   -27692   -22722   -14904   -15749   -19093 
  -28358   -33199   -37220   -40162   -40253   -39992   -31777   -24066 
  -29703   -32649   -35859   -37830   -28779   -29831   -41117   -39855 
  -41576   -51645   -54572   -58159   -56250   -36100   -19654    -6411 
      74   -12467   -16838   -12491   -11800    -5865    -4585   -13401 
  -13431   -14333   -29589   -38441   -39536   -46803   -52654   -44975 
  -41563   -35229   -36827   -47560   -38617   -32956   -36566   -30653 
  -31195   -34445   -37320   -29030   -17666   -27884   -38171   -24392 
  -16313   -14997   -18427   -26018   -14397   -13837   -39145   -50743 
  -53943   -54913   -45799   -39841   -49383   -56724   -51502   -65035 
  -84939   -63204   -38285   -48383   -39628   -23779   -41363   -42968 
  -26201   -18938   -16055   -10365    -2797   -18224   -47924   -39052 
  -24105   -37423   -30468   -19872   -32068   -52889   -68822   -69085 
  -58440   -47296   -23873     1085   -14129   -33223   -11388    -4986 
  -17722   -15297   -26908   -44827   -33351   -28742   -28726   -21876 
  -17903    -3855     2291    -4903    -9313   -14435   -44365   -66626 
  -65349   -61269   -58372   -42855   -45692   -58906   -50303   -52701 
  -68586   -52510   -50130   -72764   -77695   -70640   -58670   -38925 
  -17200    -2834   -17430   -13550    32807    60842    54146    47197 
   50715    38326    15567    21404     8165   -60598  -128210  -156237 
 -139913  -113936  -111265  -125277  -135336  -124808   -68861    -5263 
   15147    -8395   -11225    38180    54123    18592   -14284   -61484 
  -87441   -64341   -30965   -25728   -67100   -79943   -57508   -86715 
 -150065  -167785  -166450  -164041  -117725   -25738    42835    64524 
   63308    33859   -11463   -39889   -14382     5611   -27117   -44099 
  -52630   -97815   -95509   -15003    33544    10435    -7538    -3482 
   -1818     2309   -10690   -58781   -74103   -23965    12175    -8656 
  -35898   -44285   -59988   -78638   -75508   -55820   -11279    52789 
   62023     7091   -10383     9884   -29511   -92455  -102558   -83923 
  -84820   -80662   -37665    14547    11263    -2815    24904    47705 
   24132   -38468   -85481   -94013   -83064   -61476    -7819    39391 
  -16155   -66880   -16428    16482    -9875   -26853   -17820    26465 
   85456   144575   155448   145938   145166   132141   114531    49116 
  -72010  -162696  -178235  -180260  -169267   -99647     5684    61872 
   45751   -16077   -77018   -79785   -80360  -104766   -99011   -17448 
   44111    30488   -29801   -98874  -171997  -160199   -86469  -112908 
 -159650   -69075    64234    70812   -23000   -72169   -24762   -16159 
  -80649  -129177  -166808  -195754  -184038  -176372  -156843   -99239 
  -37065     8861    44536     1032   -93592   -87453    12118    62732 
   45235       36   -32067   -31980   -46125  -127045  -199890  -205172 
 -166296   -83513    10081    71710   115179   159444   181860   167023 
  183409   234962   246754   199685   132973    62356     5933   -33154 
  -60991   -76318   -68973   -71774  -120447  -172846  -148623   -71826 
  -41861   -84373  -119378   -98038   -52063   -20933   -19067   -22980 
  -10979    63073   119898    68324     4173   -27999   -48029   -40121 
  -74499  -154319  -193670  -195905  -220938  -232901  -209312  -180920 
 -166164  -128649   -50690    46963    87711    77257    77183    88838 
   80917    62883    65317    64746    62821    81495    93478    92260 
  116135   148192   124253    73004    72148    88973    81648    43283 
  -27850   -87206  -106543  -101644  -104650  -110199  -108706   -97042 
  -68357   -35457    -9773   -39009   -86815   -64483   -11633     6007 
    2635    29711    90273   109082    70593    31610    18677    50756 
   77983    50126    -1967   -62331  -105926  -127134  -182651  -267381 
 -299051  -245194  -132035   -76829   -93395   -67576   -28088     -436 
   38199    43580    27890    79165   145509   165881   176668   186181 
  179162   166551   139503    59489   -21191   -53509   -78879  -124186 
 -168844  -210161  -286211  -363057  -384637  -362859  -348259  -292749 
 -111118    98082   191121   212017   253526   280572   258249   209401 
  171787   138020    97871    43538      680   -24155   -58714   -85648 
  -65784   -25727   -38836   -71911   -53863   -21339   -18322   -40842 
  -57409   -24830    43083    96154   119551    78211   -19925  -131573 
 -215211  -225987  -196280  -193749  -173709   -56020   103522   145712 
   78097    14169     -967     7694     9467   -25381   -51984   -66410 
  -94397  -119876  -106253   -93437  -119867  -146752  -168696  -194352 
 -211351  -219621  -203549  -166826  -128682  -107963   -98001   -75670 
  -30442    22579    65227    95163   134791   196881   262849   316366 
  340663   343233   353614   388681   436361   468676   506805   514649 
  423901   188274    19487    42921    82370    89652   109735   125644 
  148044   200875   232977   214063   181588   191466   245236   296026 
  338077   373975   375852   355117   329693   250460   106170   -20472 
 -107783  -205431  -341929  -522695  -647175  -648842  -597903  -573156 
 -456127  -230974  -118946   -93227   -24420    56426   122828   187326 
  247053   258240   177157    50290   -74233  -192784  -270830  -316511 
 -374111  -438832  -478567  -498758  -500319  -466208  -421264  -359423 
 -231966  -105236   -54647   -15234    46916    96757    44934  -165225 
 -391886  -506471  -550963  -570353  -570958  -559902  -541612  -544541 
 -566593  -552270  -450063  -259846   -85099    27507   104877   154248 
  196400   192886   154738   109017    99513   136885   164786   149286 
  137404   160568   199123   189550    81167    -1011     7195    26459 
   35439    69532   125580   180064   236913   281788   314016   340830 
  345647   328071   292523   204625    19419   -45330     4950     7660 
  -25908   -31601    22043   112784   141636    66590   -74286  -181171 
 -258551  -277908  -214216   -74420   101026   244303   320201   340880 
  335958   289949   173253     5130  -162133  -310521  -435039  -518235 
 -514703  -339822   -28939   168270   225052   260253   202445    61749 
  -22877   -17826      389   -21787   -35333   -32275   -37438   -76008 
 -106178  -133588  -198282  -278610  -290355  -218702  -127356   -46740 
   14786    59585   111416   186418   251059   242635   131975   -37238 
 -172328  -237342  -238081  -149886     1314   123897   152575   134675 
   98383     7242  -121118  -242809  -302101  -268791  -180649   -67856 
   53424   164657   257591   342966   428882   505485   556998   577592 
  589218   594121   481529   182735     1340    18301    33585     1458 
  -30144   -31148   -14327   -15801   -29794   -65955  -113754  -134193 
 -116803   -80876   -78230  -109582  -154200  -211441  -269950  -329812 
 -390104  -460420  -545399  -620856  -660207  -642636  -541576  -329611 
 -128733   -84242  -136497  -180382  -223700  -281753  -323750  -337791 
 -320304  -265790  -180382   -86839   -18192    -6705   -63268  -160173 
 -261228  -323455  -350362  -355984  -335843  -306333  -272697  -226726 
 -146157   -46732    12640    11410   -17165   -64480  -162211  -233221 
 -241003  -218418  -174060  -120649   -61990     7746    66890    84982 
   54054     8858   -23916   -38980   -22092   -12068   -36517   -59279 
  -66547   -90470  -121339   -92707   -29079     6640    29060    42160 
   18572   -28056   -51336   -36951    -4612    26213    47165    64299 
   92904   106378   100777   106826   125849   151252   162641   148229 
  131942   125992   107002    72986    42853    37890    67520    94832 
   96246    62842     -567   -67330  -131825  -197840  -277463  -350329 
 -367262  -291092  -164399   -75087   -29493   -12686   -28169   -48870 
  -46192   -35308   -60588  -121234  -172873  -204491  -222075  -205733 
 -167770  -133036  -105757   -63207   -25520   -35658   -96562  -177216 
 -243300  -308420  -377191  -420704  -432023  -371897  -162935    15408 
   29991     7200     1059   -31719  -115888  -213159  -275311  -293843 
 -250794  -125944    29764   100831    89472    81868   102141   118359 
   53607   -75239  -154241  -144780   -88359   -25980    27252    80725 
  159911   247710   307826   334690   344154   346840   333055   294252 
  250684   238556   258045   270750   277838   297671   310948   300771 
  275969   257519   232989   196165   153036   118750   103469   104679 
  115885   131570   155305   183195   208853   233526   250171   236158 
  154136    18452   -71876   -84058   -74975   -85527  -103022  -115019 
 -134235  -170316  -202153  -217232  -211739  -199242  -199647  -202711 
 -216943  -241916  -238875  -204819  -174990  -168582  -178790  -192526 
 -190488  -183975  -180689  -180729  -196093  -213526  -220653  -226850 
 -233598  -228334  -214283  -170925   -99735   -42091     4736    42435 
   64495    66002    66556    77952    83914    97288   123533   147859 
  152877   159274   184937   212205   232203   239750   226530   186300 
  135227   110137   111594   104271    67027    11921   -27537   -39675 
  -41735   -49443   -62593   -68449   -61725   -42100    -1465    39493 
   52340    27925   -22144   -72123   -98192  -101872   -97926   -82969 
  -64780   -61994   -70637   -76973   -77034   -76820   -78143   -64798 
  -36044    -6282    12672      417   -42786   -86062  -108559  -103954 
  -72938   -27699    23012    64083    94562   124559   158174   204714 
  257255   278762   272310   274981   304254   333357   338611   333994 
  337990   350300   335046   275899   202490   146497   116322   107299 
  113846   131880   160166   173174   167172   147017   112452    66372 
   16313   -34842   -94358  -149415  -183100  -205012  -225440  -259840 
 -308574  -344087  -354641  -346439  -325604  -316633  -323456  -331060 
 -336901  -344359  -349379  -345118  -328692  -297062  -250557  -206167 
 -183468  -187250  -200596  -207239  -207108  -206706  -197863  -184669 
 -179764  -180946  -193763  -221778  -246272  -252167  -235582  -207173 
 -173877  -150743  -135496  -113578   -80472   -52533   -29342       48 
   22336    30551    36396    49806    58840    57803    58694    59878 
   65978    80048    95320    97377    84210    68918    71529    90419 
  102546   103669   100928   103990   107013   118461   149269   165963 
  134683    60255   -22495   -66191   -83289  -110203  -142368  -158392 
 -150728  -141150  -143860  -151278  -157499  -164328  -175463  -187992 
 -198725  -205955  -211699  -225083  -228428  -218421  -198897  -177810 
 -166028  -163936  -165591  -162328  -144067  -105992   -64625   -43445 
  -49171   -60997   -52211   -21805    17932    53348    76638    88723 
  100310   124203   150901   173755   199045   221542   237235   246906 
  254701   254941   245396   237393   225892   192102   145284   117965 
  118454   122981   111231    91636    63487    21315   -23777   -56356 
  -74435   -92356  -119715  -148747  -163854  -164250  -169581  -178986 
 -182570  -191512  -215017  -247616  -280863  -307282  -327940  -341519 
 -341670  -329310  -312106  -288030  -252748  -203552  -143242   -95697 
  -64818   -34488    -9943     3473    14531    33351    53750    71630 
   88224   102841   105660    99078    79001    45802    22340    33600 
   74244   110764   135747   150458   164460   181392   190714   193881 
  202236   217311   218338   200419   183398   168704   149090   133833 
  132733   131313   118124   104565    97373    94816    92274    84318 
   72147    56066    38210    18710     5138    -8582   -35651   -66926 
  -89953  -101547  -113330  -135673  -164001  -187931  -199514  -201355 
 -204901  -221262  -242361  -260538  -268749  -269671  -269920  -268548 
 -266711  -262782  -255901  -251288  -236248  -215045  -193990  -176850 
 -175577  -182142  -178648  -160442  -135109  -113781  -102477  -102666 
 -104252  -104950  -108814  -109158   -99158   -84408   -72801   -61212 
  -39595   -10682    21088    52175    80938   117956   158358   198160 
  229155   244702   245206   229698   210530   187415   153508   118638 
   92835    79052    72615    63905    57529    57408    68793    80058 
   79767    77361    75335    78887    88112    93229    83836    58414 
   25802     5632     1672    -2130   -12621   -26632   -35585   -33671 
  -15880    20733    55921    74496    85310    93498    87976    70403 
   55226    38430    14509    -6493    -6559     4735      790   -18240 
  -37146   -44388   -43469   -46901   -53909   -45023   -14744    23439 
   47587    52994    56324    56753    40680    11142   -20423   -45636 
  -51463   -46198   -40282   -34467   -26868   -26150   -39570   -59782 
  -82579   -99112  -105970  -111630  -112091  -104159  -100997  -104526 
