Origin Time       2000/10/06 13:30:00
Lat.              35.278
Long.             133.345
Depth. (km)       11
Mag.              7.3
Station Code      SMN002
Station Lat.      35.4714
Station Long.     133.0682
Station Height(m) 2
Record Time       2000/10/06 13:30:26
Sampling Freq(Hz) 100Hz
Duration Time(s)  240
Dir.              E-W
Scale Factor      2000(gal)/8388608
Max. Acc. (gal)   175.069
Last Correction   2000/10/06 13:00:00
Memo.             
[...]
   65054    65077    65118    65110    65116    65140    65164    65168 
   65112    65087    65110    65129    65117    65084    65106    65103 
   65136    65076    65075    65106    65038    65048    65055    65103 
   65109    65130    65133    65145    65107    65094    65065    65046 
   65061    65099    65087    65093    65129    65114    65129    65153 
   65093    65100    65084    65111    65102    65122    65114    65082 
   65059    65053    65088    65099    65058    65076    65045    65012 
   65086    65089    65101    65115    65128    65097    65116    65099 
   65116    65148    65161    65129    65148    65153    65120    65135 
   65135    65122    65099    65093    65134    65119    65133    65167 
   65106    65077    65086    65106    65089    65037    65028    65038 
   65067    65095    65119    65135    65166    65150    65130    65122 
   65101    65121    65163    65126    65117    65143    65150    65142 
   65127    65129    65067    65059    65101    65135    65078    65069 
   65043    65060    65052    65064    65102    65100    65081    65108 
   65150    65146    65105    65096    65069    65022    65060    65073 
   65065    65086    65057    65030    65061    65088    65111    65155 
   65145    65122    65066    65081    65104    65093    65125    65185 
   65196    65191    65138    65104    65116    65124    65127    65033 
   64968    65024    65076    65096    65130    65188    65166    65111 
   65133    65097    65070    65084    65091    65068    65044    65021 
   65045    65075    65040    65038    65030    65040    65045    65125 
   65139    65106    65160    65137    65122    65114    65160    65169 
   65151    65173    65162    65145    65175    65144    65136    65118 
   65111    65132    65158    65101    65061    65066    65086    65084 
   65091    65086    65057    65043    65050    65083    65091    65083 
   65032    65046    65053    65055    65099    65129    65166    65153 
   65110    65112    65163    65139    65084    65105    65109    65113 
   65097    65122    65095    65037    65035    65057    65099    65113 
   65098    65106    65106    65070    65081    65126    65155    65128 
   65148    65214    65180    65136    65170    65133    65099    65063 
   65053    65038    65043    65088    65105    65140    65076    65070 
   65076    65098    65156    65145    65114    65093    65071    65088 
   65072    65103    65102    65090    65047    65097    65128    65101 
   65100    65160    65158    65124    65126    65073    65100    65152 
   65207    65159    65139    65085    65110    65137    65096    65046 
   65039    65009    65024    65078    65115    65129    65109    65148 
   65144    65102    65129    65112    65091    65173    65167    65147 
   65175    65109    65113    65103    65113    65097    65097    65081 
   65042    65059    65076    65089    65070    65066    65111    65119 
   65107    65098    65057    65081    65047    65075    65140    65100 
   65117    65092    65071    65118    65104    65143    65117    65125 
   65155    65107    65084    65082    65062    65088    65110    65117 
   65158    65136    65081    65123    65156    65084    65103    65097 
   65089    65085    65100    65062    65103    65133    65087    65126 
   65105    65091    65093    65094    65082    65108    65107    65073 
   65078    65109    65095    65111    65104    65060    65099    65135 
   65148    65128    65123    65139    65129    65130    65113    65073 
   65084    65105    65107    65037    65035    65068    65090    65090 
   65085    65081    65167    65128    65114    65166    65148    65083 
   65121    65169    65129    65119    65130    65117    65105    65117 
   65151    65158    65159    65188    65185    65158    65121    65174 
   65159    65128    65132    65094    65093    65031    65010    65069 
   65092    65032    65018    65028    65053    65060    65083    65113 
   65141    65137    65134    65164    65140    65139    65172    65146 
   65155    65156    65142    65114    65093    65090    65117    65106 
   65128    65137    65128    65063    65085    65128    65099    65123 
   65146    65147    65125    65105    65105    65083    65082    65136 
   65139    65142    65126    65141    65122    65074    65099    65116 
   65112    65160    65158    65146    65121    65098    65084    65099 
   65096    65086    65120    65135    65126    65111    65056    65052 
   65119    65114    65143    65142    65153    65139    65121    65126 
   65120    65183    65153    65129    65138    65121    65143    65128 
   65130    65138    65125    65128    65166    65119    65147    65152 
   65100    65102    65090    65094    65095    65050    65043    65061 
   65063    65091    65109    65090    65106    65078    65054    65058 
   65109    65133    65124    65131    65100    65037    65087    65106 
   65095    65151    65178    65164    65172    65172    65156    65127 
   65092    65164    65150    65136    65158    65133    65070    65125 
   65094    65090    65148    65129    65122    65105    65080    65106 
   65171    65087    65051    65123    65084    65096    65107    65104 
   65089    65116    65159    65142    65141    65089    65094    65082 
   65099    65065    65068    65136    65076    65071    65085    65085 
   65050    65088    65090    65093    65086    65141    65172    65207 
   65193    65156    65175    65169    65162    65169    65166    65134 
   65159    65176    65084    65032    65080    65067    65091    65154 
   65054    64961    65131    65199    65094    65457    65444    65118 
   65154    65047    64896    65000    65309    65295    65014    65385 
   65125    65043    65598    65631    65203    64832    64949    65590 
   64843    63412    64769    64686    65194    67411    66668    63494 
   64330    66242    66069    65437    65694    65667    63893    64188 
   66168    64166    63944    66556    64962    64852    65795    66480 
   65535    63613    65337    64595    63617    65543    63822    61168 
   64898    66045    62161    64042    66240    66743    65520    64051 
   65679    66802    66933    65046    64963    66283    64323    62456 
   62772    64663    67243    65789    66263    69483    68279    68324 
   67480    66028    67569    66509    67014    66762    62992    63073 
   62574    63994    66188    62194    59505    61972    63934    64289 
   66720    67396    66222    62890    61041    63126    66053    64893 
   62345    61562    60632    64332    67559    64378    65569    68401 
   69758    68021    65067    63980    68648    72367    69548    67570 
   67227    64600    62135    60227    57510    61612    67063    68430 
   69235    69023    68751    68628    66821    67666    65357    63051 
   64832    62427    59530    66435    65124    62864    64229    61407 
   61275    59607    58172    62355    65093    68862    67551    59207 
   57321    59451    58202    62735    61927    59610    68999    73932 
   63306    64508    75110    79107    78839    78402    75610    75228 
   74296    70552    71844    69363    65882    63371    58505    62160 
   67144    64958    66814    64518    58056    61174    67739    57556 
   49051    52561    53377    49742    54283    53404    49885    54194 
   52404    48999    53226    62498    74333    72836    65014    59765 
   61141    63429    66965    68688    62727    65469    83733    89851 
   82123    79268    78086    81918    88022    86466    88026    86860 
   78389    68790    63314    66757    75853    79961    73856    57831 
   51850    50703    50122    51356    42274    43287    53201    63850 
   68171    58170    48009    44326    35539    26255    25257    32556 
   50539    62209    68868    78306    74224    68403    64760    56775 
   55885    65327    71812    79049    83843    83481    77924    63041 
   58610    65437    74439    85274    87621    81430    86994    87883 
   81922    81455    82972    86709    90716    89978    83863    70955 
   63551    62052    53331    48210    57442    62483    60145    58758 
   51074    44262    45836    57755    55724    47729    47474    44363 
   44047    46106    42906    36500    45442    58222    59917    57733 
   61055    71270    81021    82180    71148    60317    61411    65240 
   70256    66033    66198    71312    70993    74423    77632    72897 
   78820    85186    88461    88541    76452    73382    79937    77383 
   76815    78454    75556    75031    74329    58684    50072    51567 
   52064    60300    63446    68165    76142    71440    63416    58331 
   52675    53287    55851    51100    53869    63910    70896    61159 
   64756    73461    72332    72109    63331    64370    70171    57211 
   51051    51753    55245    54186    41757    45053    48756    45693 
   62501    76820    73843    76149    76827    77844    88498    95105 
  101287   100342    99105   100689    96655    95707    89698    80061 
   81757    68359    53134    63836    58639    51502    84491   102495 
   91403    69201    50161    49412    51486    55963    67481    55060 
   43395    54407    41883    33677    47690    70537    81678    77442 
   75892    70783    70898    74868    76980    81596    69993    60902 
   48334     8440     3215    50816    69744    64690    63656    62963 
   69910    64316    68122    63002    52500    76510   122208   137492 
  120470   116870   118871    91090    79172    99225    79981    47076 
   49875    57176    69554    96424   126093   121124    80783    53774 
   64284    68427    91987   117128    99852    74429    93260   123284 
  129983   148911   170673   143479    90091    42595   -23410   -90685 
 -125935  -120735   -88464   -31144    18918    44212    44826    40846 
   52028    85465   114742    93753    44370    16723    20613    60452 
  108550   137118   128371    77451    39726    -4677   -57727   -50705 
   40768   128246   177624   190343   164314   162842   178850   164821 
  120240    95909   105807   105470    47903    -7235    24238    79972 
  103151    87756    32693   -15469      267    57474    80743    94820 
  131883   140214    79826    34710    48972    66201    52513    62177 
   94672    94399    73005    58089    32316     8494    26206    46581 
   53732    60310    60544    49552    54523    43892    44747    43533 
   38424    19567    -3554    11552    94707   133975    83813    42713 
   54940    92626   123966   146952   121205    79459    55869    13797 
   -7239     7224    30983   101261   214006   290603   297559   278109 
  272213   266032   281164   291371   270308   252828   185142    88086 
    8673   -37322   -59314   -23347    12371     4700    -5582   -52470 
 -129259  -175552  -167849  -178281  -174232  -124537   -50057    -8767 
   35650    55492    32823   -15249   -28527   -21957   -40707    -8024 
   72707   130544   149298   188427   217475   161990    12757  -101575 
 -121021   -87531    -4197    63050    69566   124437   184551   180145 
  116426    86044    95096   156967   208624   169594    93101    80907 
  124125   126171    65367   -32191  -134725  -142799   -64981    -5939 
   40175    97400   143488   140315    92158    31575   -24544   -30165 
   -4137    19671    23514    32831    59449    76210    49312     5658 
  -25997   -21828     4741    21942    26026    59544   116720   153491 
  176799   222371   283756   282350   232147   176320   138349   130390 
  163734   163610   140074   162297   182419   185905   167065   116419 
   83763    55328     8081   -39132   -62625   -77935   -76421   -45008 
   13896    69457   124181   159674   136926    36686   -90711  -173486 
 -199648  -176148  -161750  -147466  -124209  -120791  -134706  -156533 
 -157213   -97805   -24759    18630    37650    71266   128671   188432 
  245603   273014   265160   241239   228757   243698   268532   270223 
  248741   251226   240162   160709    45559   -20895    -9855     8896 
  -16231   -46259   -20724    64624   136508   152852   179963   199842 
  205313   202355   134665    54433     4531   -28578   -46533   -67332 
  -83774   -85917  -103389  -100315   -56699   -48934   -53592   -44347 
  -13279    44055   100642   111688   119673   155590   181320   181510 
  155533   139355   150866   195484   265789   306239   309577   289627 
  257248   165855    23153  -102134  -148547  -145377  -104229    -9169 
  112231   197485   224469   171394    72563    24738    -1535   -52082 
 -128657  -197326  -236958  -248424  -248260  -257421  -268255  -218364 
  -95725    -1841    43692   112357   156408   137837   114216   157866 
  236306   243798   197594   186259   178754   132624    74155    39538 
   35593    17747    -2058     1384    12879    26801    39581    72035 
  106417   113976    93725    62396    27120    38098    49637    39639 
   26486     5400   -75788  -157475  -182033  -178977  -122111   -30591 
   23435    59082   102536   162637   210658   260128   310830   333855 
  338574   365948   414400   478914   498666   451754   394560   372291 
  385799   406852   418003   433587   406726   349338   290253   240505 
  174682   118201   101821    78636    72019    90296   127124   179982 
  229084   249213   270190   311630   356474   379788   358904   328143 
  311706   289193   256022   225448   184920   132811    52382   -37339 
 -115787  -201059  -329828  -480207  -596819  -602378  -522900  -379730 
 -148854    94316   217691   241935   208215   148832    75000    -1118 
 -106770  -218028  -282172  -309727  -344265  -386458  -434287  -492156 
 -554883  -582703  -561998  -578390  -624015  -655654  -668945  -622417 
 -421441  -137249    47845   139792   244701   343835   358477   267750 
  124605    32453    32799    83754   151152   263300   367073   425988 
  416186   324653   235680   190010   170558   138322   120044   151721 
  201031   269422   316165   351023   357713   293571   184552    65028 
  -39812  -125236  -183514  -133300    96660   322876   408698   440078 
  446990   426076   399554   410274   445418   490638   539538   596856 
  662288   719869   748311   720210   462687    88485  -101890  -176527 
 -259896  -328100  -334242  -211661   -68680   -40384   -18406    34607 
   70874    30462   -64267  -160818  -203762  -186234  -184343  -180709 
 -159473  -159416  -233204  -336446  -421286  -465708  -500477  -528652 
 -509996  -341429    14279   237914   251540   173774     2644  -174076 
 -261950  -289927  -315783  -292561  -201927   -74599     4968     8693 
  -54395  -107592  -108188   -56739    21775   103973   176398   217398 
  242371   280099   339562   382367   380168   367766   374824   389069 
  368023   304211   256126   249215   265641   266422   284917   334526 
  375061   381115   355634   349145   354176   370627   445039   541589 
  606453   635140   651512   673536   708967   737804   720358   674791 
  628719   577093   438419   243184   155196   160369   149097    64597 
  -10603   -34156   -43571   -43662   -25866    -5437    11377     8645 
  -21332   -79204  -119958  -162957  -238902  -306939  -346338  -347821 
 -344001  -353728  -358966  -354864  -337884  -316551  -312561  -321403 
 -298545  -286920  -297154  -313315  -329742  -346806  -373219  -409072 
 -448720  -474632  -483165  -474576  -458110  -438304  -397204  -360579 
 -337727  -331083  -333026  -314992  -278168  -217220  -153593  -106076 
 -107168  -161392  -251377  -318480  -316359  -250868  -119019    -7575 
   62261   154513   270253   368806   423332   411912   329975   191634 
   44775   -55898   -86455   -69012   -70897   -83474   -58903    10199 
   76835   100554   114507   126755   120618   130602   171379   229945 
  279036   329796   393610   463673   508454   527741   539899   551037 
  539328   467441   380033   353096   401375   455682   491498   540044 
  606257   655156   676293   668725   646837   591099   472806   377797 
  343621   305470   235274   160871   109816    47151   -39898  -116866 
 -143258   -89499    55827   198940   237189   197591   147715   118705 
  100333    76659    48675    28431     6399   -38277   -88041  -138035 
 -192293  -248749  -276187  -294892  -304915  -297989  -299080  -301594 
 -312650  -312957  -321525  -341701  -357809  -295881   -95824    47002 
   33055   -28609   -72666  -133948  -177719  -185110  -171785  -134498 
  -82198     4529    74421   105038   124490   150464   173486   145225 
   46595   -31974   -18630    51014   118349   170588   218567   265571 
  287219   266712   234743   201771   168949   141429   109064    75774 
   73940   109860   144889   166569   172903   160709   141776   129160 
  143769   161935   185446   223114   258113   275378   287112   297321 
  294556   287810   276278   274497   289297   309318   321703   337615 
  349919   330234   266095   207825   186293   179859   158644   127425 
   95633    64936    11187   -67910  -166762  -274500  -339805  -369235 
 -370516  -313576  -195651   -98250   -68232   -78227  -100620  -133641 
 -191780  -258068  -288696  -250168  -169461   -97312   -57352   -45905 
  -50533   -65652   -77682   -76631   -82513   -91655  -108936  -137007 
 -165125  -163022  -130989   -84022   -39783   -25864   -33341   -55353 
  -81830  -102798  -121013  -118590   -94830   -54325    -5331    46988 
  109536   173697   224233   266441   315596   373076   423982   454677 
  473267   486882   495932   491277   473873   461984   442187   407030 
  365020   335575   331542   343626   326687   276441   234018   214995 
  214226   218288   216162   209910   192576   175608   183034   185744 
  144206    79195    13252   -34779   -45701   -33885   -31554   -55849 
 -102341  -142927  -178936  -207303  -223633  -229515  -218832  -205458 
 -199044  -185838  -179746  -192850  -208097  -217612  -219289  -209398 
 -192304  -177968  -149304  -123438  -130182  -150408  -167436  -186677 
 -207598  -206385  -172731  -108457   -68207   -48886   -22022    15158 
   60806   107255   148482   188630   232522   270860   294133   309237 
  330334   340290   322290   289854   259686   255684   269415   274640 
  278592   296879   318574   331826   336477   340956   338872   326587 
  315730   315347   300190   256259   231433   251197   269136   252021 
  234573   236472   244362   241834   226088   216610   214959   220616 
  208894   168333   129357   130443   149259   149113   137419   131590 
  132785   140656   161280   173262   164683   149427   130401    98493 
   46856    -2482   -38559   -63108   -70685   -58539   -35948   -14846 
    8380    28013    38686    31696    19394    10546    -1347   -15170 
  -12581     -358    20158    41918    57669    65836    57212    50524 
   52619    69554    99658   126765   143020   143316   134885   128443 
  132224   145239   157522   183042   208086   228615   238282   226996 
  205450   184515   161158   119446    66789    22469      313   -20391 
  -34086   -31174   -21575    -3809    12094    22370    19564     8331 
   27707    68306    97334    96312    65049    19490   -24751   -56220 
  -71315   -80512   -94333  -115079  -139256  -156381  -155822  -145920 
 -143950  -149436  -153155  -154327  -149849  -136106  -114027   -95048 
  -87762   -91427   -93094   -92488   -94145   -98636   -99905   -92748 
  -80724   -71258   -63835   -60781   -63570   -77319   -95829  -107683 
 -109659  -105636   -95159   -80521   -72486   -75672   -81854   -77259 
  -64994   -49486   -30069   -18385   -15620   -23950   -37225   -49042 
