Origin Time       2000/10/06 13:30:00
Lat.              35.278
Long.             133.345
Depth. (km)       11
Mag.              7.3
Station Code      SMN002
Station Lat.      35.4714
Station Long.     133.0682
Station Height(m) 2
Record Time       2000/10/06 13:30:26
Sampling Freq(Hz) 100Hz
Duration Time(s)  240
Dir.              U-D
Scale Factor      2000(gal)/8388608
Max. Acc. (gal)   105.439
Last Correction   2000/10/06 13:00:00
Memo.             
[...]
  -36636   -36637   -36658   -36644   -36587   -36571   -36572   -36548 
  -36520   -36526   -36582   -36556   -36590   -36602   -36602   -36613 
  -36624   -36634   -36652   -36658   -36641   -36666   -36680   -36698 
  -36718   -36714   -36661   -36611   -36626   -36629   -36586   -36570 
  -36600   -36638   -36622   -36615   -36612   -36593   -36595   -36633 
  -36608   -36576   -36623   -36615   -36624   -36628   -36631   -36572 
  -36542   -36616   -36615   -36605   -36629   -36666   -36683   -36638 
  -36643   -36681   -36717   -36688   -36630   -36643   -36632   -36599 
  -36609   -36574   -36550   -36545   -36525   -36529   -36508   -36556 
  -36574   -36588   -36631   -36682   -36714   -36727   -36715   -36718 
  -36749   -36814   -36811   -36754   -36706   -36691   -36670   -36602 
  -36537   -36464   -36425   -36412   -36394   -36416   -36422   -36458 
  -36518   -36591   -36688   -36748   -36746   -36799   -36791   -36777 
  -36792   -36758   -36722   -36676   -36636   -36618   -36573   -36590 
  -36595   -36596   -36562   -36543   -36546   -36541   -36557   -36580 
  -36604   -36646   -36636   -36629   -36577   -36552   -36574   -36616 
  -36687   -36767   -36800   -36782   -36708   -36672   -36696   -36672 
  -36635   -36639   -36610   -36525   -36461   -36430   -36396   -36384 
  -36418   -36441   -36541   -36630   -36690   -36704   -36723   -36748 
  -36797   -36817   -36803   -36838   -36813   -36707   -36661   -36590 
  -36514   -36490   -36461   -36490   -36506   -36545   -36553   -36539 
  -36587   -36657   -36678   -36678   -36686   -36650   -36641   -36637 
  -36679   -36680   -36680   -36644   -36646   -36613   -36610   -36598 
  -36633   -36671   -36642   -36602   -36615   -36619   -36601   -36541 
  -36526   -36535   -36533   -36541   -36583   -36637   -36676   -36701 
  -36675   -36720   -36728   -36745   -36767   -36719   -36734   -36706 
  -36653   -36666   -36620   -36566   -36518   -36504   -36478   -36500 
  -36522   -36590   -36619   -36609   -36594   -36646   -36663   -36717 
  -36703   -36709   -36701   -36693   -36664   -36658   -36648   -36639 
  -36543   -36507   -36545   -36568   -36516   -36542   -36608   -36616 
  -36631   -36643   -36647   -36638   -36629   -36637   -36639   -36648 
  -36679   -36677   -36652   -36634   -36595   -36619   -36620   -36584 
  -36558   -36535   -36564   -36574   -36568   -36595   -36616   -36637 
  -36675   -36740   -36733   -36671   -36646   -36627   -36636   -36626 
  -36628   -36574   -36581   -36592   -36553   -36557   -36589   -36622 
  -36597   -36591   -36622   -36640   -36640   -36681   -36702   -36716 
  -36708   -36704   -36628   -36579   -36561   -36535   -36551   -36597 
  -36597   -36530   -36571   -36642   -36566   -36593   -36614   -36636 
  -36661   -36687   -36725   -36727   -36712   -36636   -36577   -36553 
  -36564   -36593   -36615   -36691   -36708   -36678   -36635   -36640 
  -36656   -36640   -36616   -36582   -36554   -36570   -36566   -36590 
  -36619   -36633   -36622   -36632   -36631   -36640   -36672   -36694 
  -36690   -36632   -36606   -36551   -36512   -36559   -36563   -36554 
  -36533   -36584   -36630   -36636   -36702   -36679   -36711   -36712 
  -36642   -36645   -36710   -36691   -36622   -36590   -36597   -36552 
  -36516   -36547   -36570   -36529   -36503   -36500   -36590   -36675 
  -36701   -36666   -36692   -36717   -36641   -36647   -36679   -36666 
  -36675   -36651   -36612   -36613   -36573   -36579   -36548   -36560 
  -36545   -36531   -36549   -36594   -36621   -36614   -36613   -36597 
  -36583   -36631   -36697   -36655   -36713   -36717   -36701   -36712 
  -36645   -36617   -36612   -36578   -36548   -36555   -36554   -36540 
  -36569   -36618   -36673   -36673   -36654   -36637   -36658   -36644 
  -36588   -36577   -36639   -36700   -36723   -36720   -36733   -36687 
  -36586   -36554   -36580   -36596   -36579   -36541   -36519   -36515 
  -36570   -36589   -36653   -36677   -36684   -36681   -36705   -36703 
  -36684   -36694   -36704   -36691   -36643   -36616   -36609   -36634 
  -36575   -36533   -36550   -36557   -36553   -36596   -36548   -36550 
  -36553   -36571   -36617   -36684   -36729   -36750   -36741   -36725 
  -36730   -36695   -36669   -36663   -36608   -36539   -36555   -36541 
  -36518   -36523   -36541   -36499   -36508   -36560   -36614   -36671 
  -36681   -36680   -36712   -36719   -36752   -36735   -36691   -36694 
  -36667   -36668   -36618   -36584   -36597   -36580   -36583   -36544 
  -36561   -36575   -36533   -36564   -36636   -36647   -36641   -36646 
  -36623   -36610   -36652   -36686   -36682   -36662   -36692   -36691 
  -36677   -36664   -36660   -36695   -36679   -36628   -36605   -36559 
  -36588   -36598   -36578   -36538   -36530   -36574   -36596   -36630 
  -36653   -36674   -36666   -36653   -36604   -36625   -36678   -36748 
  -36707   -36649   -36615   -36608   -36573   -36659   -36698   -36667 
  -36632   -36612   -36580   -36590   -36589   -36565   -36577   -36569 
  -36596   -36603   -36683   -36732   -36725   -36661   -36648   -36674 
  -36647   -36611   -36646   -36678   -36622   -36638   -36636   -36644 
  -36628   -36594   -36616   -36636   -36596   -36526   -36577   -36627 
  -36607   -36607   -36589   -36605   -36616   -36594   -36652   -36690 
  -36666   -36627   -36599   -36604   -36580   -36587   -36598   -36632 
  -36641   -36632   -36647   -36683   -36669   -36667   -36669   -36621 
  -36593   -36567   -36557   -36561   -36607   -36633   -36613   -36619 
  -36613   -36672   -36643   -36614   -36640   -36656   -36590   -36596 
  -36630   -36622   -36602   -36615   -36626   -36656   -36662   -36658 
  -36660   -36645   -36671   -36657   -36635   -36634   -36658   -36692 
  -36664   -36644   -36693   -36653   -36625   -36593   -36560   -36587 
  -36616   -36597   -36622   -36647   -36681   -36702   -36675   -36670 
  -36693   -36691   -36643   -36649   -36652   -36655   -36612   -36593 
  -36601   -36562   -36568   -36630   -36662   -36671   -36691   -36685 
  -36649   -36634   -36635   -36679   -36646   -36645   -36658   -36659 
  -36610   -36586   -36614   -36597   -36593   -36562   -36568   -36613 
  -36596   -36600   -36669   -36675   -36641   -36631   -36620   -36653 
  -36661   -36672   -36675   -36663   -36654   -36652   -36645   -36650 
  -36646   -36608   -36569   -36536   -36561   -36533   -36523   -36550 
  -36582   -36621   -36633   -36660   -36684   -36692   -36709   -36719 
  -36731   -36696   -36653   -36619   -36587   -36586   -36604   -36595 
  -36615   -36605   -36570   -36592   -36605   -36655   -36669   -36627 
  -36593   -36598   -36582   -36577   -36563   -36644   -36714   -36711 
  -36711   -36688   -36639   -36596   -36580   -36608   -36633   -36622 
  -36648   -36673   -36682   -36667   -36653   -36633   -36668   -36638 
  -36623   -36642   -36603   -36587   -36616   -36582   -36614   -36645 
  -36637   -36586   -36626   -36708   -36671   -36684   -36719   -36755 
  -36721   -36654   -36624   -36580   -36605   -36643   -36646   -36653 
  -36695   -36660   -36575   -36583   -36613   -36590   -36576   -36579 
  -36586   -36616   -36568   -36581   -36630   -36619   -36658   -36664 
  -36631   -36672   -36677   -36661   -36679   -36647   -36696   -36688 
  -36675   -36701   -36688   -36649   -36588   -36564   -36593   -36609 
  -36642   -36643   -36660   -36593   -36575   -36567   -36590   -36652 
  -36680   -36690   -36644   -36621   -36666   -36659   -36645   -36643 
  -36662   -36621   -36662   -36664   -36652   -36646   -36634   -36622 
  -36612   -36655   -36667   -36704   -36697   -36622   -36604   -36581 
  -36626   -36650   -36678   -36703   -36694   -36659   -36622   -36613 
  -36624   -36679   -36690   -36616   -36619   -36628   -36638   -36647 
  -36667   -36662   -36662   -36687   -36707   -36691   -36712   -36669 
  -36562   -36570   -36585   -36564   -36569   -36591   -36611   -36643 
  -36691   -36776   -36798   -36775   -36734   -36661   -36647   -36890 
  -37235   -37173   -36647   -36027   -36020   -35981   -35801   -36430 
  -36599   -36186   -36193   -36943   -37513   -38399   -38931   -37858 
  -37301   -36757   -34838   -35133   -38564   -40297   -39248   -40094 
  -41711   -40657   -37227   -35760   -34957   -30746   -31513   -40397 
  -39341   -24773   -24300   -34306   -37275   -34754   -38249   -37145 
  -30142   -34910   -46245   -42688   -37655   -40217   -41075   -36912 
  -32922   -36074   -39957   -38995   -34467   -33758   -39927   -46942 
  -38502   -26070   -36255   -44408   -32364   -23218   -28582   -35780 
  -35968   -36069   -36185   -39258   -37699   -31206   -32997   -41991 
  -45421   -42155   -41778   -42265   -39429   -33044   -33999   -38494 
  -37897   -33359   -30307   -32976   -34163   -33750   -37522   -40719 
  -35933   -28980   -28389   -35575   -40857   -35893   -30111   -41023 
  -48659   -41895   -35563   -36747   -39068   -37425   -35674   -40186 
  -52934   -53866   -42480   -31410   -28245   -38787   -51063   -48647 
  -34660   -29468   -34569   -34301   -28044   -21429   -30076   -37694 
  -32478   -24226   -32715   -43957   -50896   -45399   -33960   -30635 
  -32295   -32661   -33502   -35344   -30474   -30747   -41979   -43274 
  -24774   -23751   -46305   -45982   -29876   -35841   -40408   -39350 
  -37062   -37837   -40526   -47603   -48725   -46833   -44515   -38155 
  -42886   -50174   -41101   -30034   -43494   -65020   -47573   -25909 
  -47772   -56487    -5704    18687    -5940   -27849   -24578   -18660 
  -19936   -32906   -24162   -11208   -25116   -42850   -29093   -13261 
  -39042   -69151   -55518   -39913   -46388   -31208     1265   -27961 
  -88659   -76669   -34797   -38007   -51024   -42933   -53004   -39916 
  -18512   -21530   -27347   -15506   -16562   -38942   -49925   -45458 
  -31773   -23667   -29871   -34643   -53733   -68833   -32193    10432 
  -43728  -106449   -79109   -26412   -27075   -50904   -52279   -39968 
  -35241   -39896   -29243   -12934   -20597   -28286   -24294   -36259 
  -46371   -26294   -19571   -30697   -49454   -45217   -26586   -18585 
  -29248   -34507   -28018   -35056   -49461   -52904   -36916   -33217 
  -36275   -41864   -56740   -52421   -36381   -24066   -24739   -40294 
  -56408   -42119   -23356   -38567   -58717   -63575   -43794   -37453 
  -41798   -32603   -14194   -10677   -36784   -56763   -30860     1078 
  -20277   -38092   -32634   -28785   -17967     5806    -8759   -48014 
  -58453   -37614   -28524   -41813   -51538   -64069   -78374   -75844 
  -61028   -44767   -32644   -20424   -26918   -38894   -14322    -3699 
  -23237   -39205   -39793   -58975   -58978   -19667    -5014   -31497 
  -44402   -16311     4926     -778   -43897   -83523   -66203   -29480 
  -29100   -59793   -79816   -59337   -39911   -40175   -50167   -51903 
  -38378   -17295   -28187   -49053   -72297   -70005   -41967   -20893 
  -20887   -15958   -17882   -33746   -18810    -9503   -37426   -59009 
  -59536   -39806   -48146   -69032   -56882   -28233   -25928   -33731 
  -27902   -27028   -32624   -30198   -11336     4116    -9141   -68022 
  -91592   -46864   -39133   -60450   -81172   -58270   -23307   -36417 
  -68408   -60734   -38704   -44235   -53527   -34249   -43068   -91434 
  -87486   -34353   -30552   -63894   -62086   -35258    -3909   -22189 
  -74757   -88188   -56734   -24918    -2024    16111     6752   -18169 
  -28430   -56948   -91251   -62486   -57552  -100592   -56408    -7730 
  -63126   -87676   -30627     6784     6963    14077    -9819  -100432 
 -143918   -37938    37245   -23824   -67862    -4221    42750    -1488 
  -15845    28562    64883    39273     3274   -30316   -93198  -106175 
  -48749   -28136   -23806    22916   -23532  -131623  -117357   -23514 
    6179   -52878  -128509  -195033  -211955  -124944    20731    88847 
   11886   -16523    49787    70039     6445   -11621   -40209   -67256 
  -17250   -14650   -76156   -67179    13202     5971   -49548   -49673 
   -1009     3914   -56236  -123661  -130196   -68243   -33388   -40995 
  -96670  -116453  -125471  -139330   -15886   175120   170198    -2467 
 -125049  -147208  -103270    -2720    55826   -31820  -149073  -143942 
  -15110    71355     9672  -137511   -91903    96876   135809    30211 
 -102444  -186367  -180440   -72412    31778   -36128  -189740  -152551 
   70960   136649   -20676  -156081  -207533  -103689    79083   124801 
  -17060   -88770     6045    33529  -104747  -171301   -40584    29444 
   31827    38752   -39876  -118427    16063   211174    54346  -216252 
 -156890    52540    41261   -35444    35404    49681   -45734   -34263 
   96514   110445    52889    29909     -441   -80504  -118525   -87378 
  -77493  -101112  -153000  -125647    29773    91952   -21819   -63329 
   32665   -10163  -229920  -274721   -77996    33910   -77418   -62331 
  146562   232146    87531   -20051   -79319  -150588  -124458   -12491 
  109248    20402  -127595   -13576   189581    97700  -170817  -157436 
   25681    72927    87883    45751  -138803  -214463  -203375   -97283 
   12005    40289    56609   136477   172572    39881   -11831     8192 
  -16990   -77962  -153569  -238533  -157869   -18505   -87993  -178454 
  -77780    87662    27840   -83816   -73542   -31114   -57533    58539 
   59817  -170246  -219543     4301   109716  -174590  -475647  -377459 
  -89697   -58562   -88446   -52007   -99286  -171243  -106059    42081 
   81539   180638   339503   398659   209724  -196303  -288864    91731 
  405499   231859   -46038  -119415    48272   258189   239634    40015 
  -68114   -73166  -131636  -202906  -174471  -169543  -225731  -185001 
 -134148  -101074   -30072   -28923   -88891   -55591    90391    51361 
 -144763  -211268   -96181    53748   122618    14001   -86649    16283 
  109137    46083   -36060  -142375  -179658   -39641   131372   188777 
   63750  -193338  -221143    20988    55572  -107216  -215716  -186109 
  -92051   -33780   -31790   -62819   -19457    42161    72441    63911 
 -100921  -253389  -214472   -13187    82101    19940   -69920   -68886 
  -35182   -11433   -17983   -28183   -73989   -82949    -2869    59489 
   61701     5619   -15593   -74672  -199603  -147521    83993   194846 
   99654   -52742   -59807    -7146    15907    41275    86550    57136 
 -116539  -132420   111427   184927  -160015  -362963   -44876   283637 
  142450  -238160  -264280    58976   151420   -40762  -124492   -30168 
  176153   286643   203677    97569   -22915   -51444    -8998   -29306 
 -116195  -266936  -308861  -133138   -28973  -144757  -184167  -118840 
  -94460   -71982   -94270  -148069   -92566    39138    -1548   -58530 
   -5861    34176   -23178    -5759    72929    26141   -15744    -2478 
   -1408    -2551   -76174  -249031  -243968   -11472    64780  -146057 
 -314682  -136515    76006    28009   -51382    42475    67125   -37827 
  -92116    14646   104757   -10401  -173161  -191108   -65987   -33135 
 -160157  -211206   -45208    55224  -105966  -271018  -179580    80624 
  134751   -80385  -205561  -120113    28916   104934    73780   -33644 
  -98026   -46085    91498   129615    34732  -113794  -116542    86471 
  199130    35112  -140930  -138848    19317   193916   156156   -76512 
 -156472  -139039  -227626  -236768   -46862    14529   -65929  -144574 
 -188629  -164328  -137712  -204047  -278964  -181422   -26868   -92961 
 -261914  -154338   150166   181757   -44268  -166851   -11279   271018 
  352936   161919     1656   -44262   -29892    40798    88874   105206 
   27175  -168547  -318167  -245970   -74555   -48733   -28633   -69620 
 -172410  -178772   -60307    45049    -8249  -149319  -197615  -107371 
  -38161    -9045    12114   -35561   -80749    -3327    79023    31093 
  -44002  -103336  -174803  -216436  -154165    12525    71180  -111974 
 -305046  -293591  -160617   -46608    60547    31448  -140754  -285204 
 -210968    74065   272282   240091   106376  -126274  -280300  -127046 
   99161    76865  -124244  -288786  -294454  -176060   -51896    16693 
   93217    35238  -194855  -247627  -140114   -50629    20184    45913 
   78753   112281     3816   -98527   -55576    65580   101259   -21207 
 -165958  -150717   -57574    18142    68337    -3863   -72026     9164 
  165011   117167  -120194  -197130     4181   267801   212886   -29760 
  -50112    45954   148875   163632    -4501  -149299  -141942  -181358 
 -263954  -198687    31912   202881   105026  -117596  -216745  -131983 
  -43537   -38842   -69393   -95251   -44210    32546    45912    73065 
   98777    38229   -71837  -182787  -195262   -54676   110603    66134 
 -132371  -198358    44513   244436   172424    14261   -15891   165231 
  177406  -126312  -409389  -338168   -47454   130584    83431   -29098 
  -92819  -105003   -88297   -30393    63879    56528     1699    -8858 
  -18707    -3061    99144   154052    -7830  -133383   -62508    31300 
   23191    33392   104383    37741  -126283  -174926  -114118  -108209 
 -100228   -70056   -92769  -154383  -162273  -101567    17271   125625 
  113360   -13002  -124624   -51605   155113   175042     6455   -94922 
    -139   121330    68827   -56571   -81806   -37221  -107182  -148191 
  -27145    22543    -5736    28421    96012   141586   114890    27876 
  -31550    12412    17859   -32873   -33734    74425   146375    94605 
  -34017   -39064   159777   188573    24691   -67882   -45590      102 
    5205    -4492    13669    17270    31050    28684    17691    53552 
   44204    -3386   -98213  -100753     6121    23473   -56165  -146255 
 -177184  -173087  -148574   -84504   -53041  -143574  -204714  -123007 
  -67370   -58849   -31404     5043    10767   -39741  -123801  -166028 
 -162358  -183625  -164966   -85614   -47876   -92843  -231033  -285284 
 -162493   -13370    -2946  -149208  -255686  -211847  -109653   -80051 
  -96975  -144070  -149422  -111824  -105118   -75879   -38484   -49687 
  -69724   -85926  -110592  -123170   -71385     2179   -40014   -90957 
  -27720     4019  -112134  -195180   -58699    63913     7069   -12319 
   33764   -16132  -131396  -141084  -100213  -107298   -80517    14858 
   36927   -83781  -170174   -78030    91321   125082   -19720  -247182 
 -291430  -114765    41787    53266    50460   106134   102816    -4098 
  -51709    38208    70560   -23025  -129025  -158099  -150755  -184870 
 -134148    22673   107968    67185    -4442   -35018   -52579   -63334 
  -49454   -11737     5957   -43922   -79711   -35721   -41030  -135232 
  -83102   101614   160192    48757   -49610   -79354   -29289    83770 
  128978    40889   -97537   -93729     1336     8841   -16724    20519 
   56417   -27623   -59268    27450    84074   -19812   -65922    15870 
   54465    43391    73533   129584    58968   -64289   -95819   -74026 
  -11491     1549    -4982    38433    47238   -30849  -118785   -72437 
   63275   110697    -1791   -92524   -33550    44132    36490    -8402 
  -42073   -35669    11110    25156   -23441   -68694   -58574   -32893 
  -43265   -54952    12564    27017   -32484   -29251    20768    66590 
   86509    71184    28483    16748     9400    17143    50615    45106 
  -37768  -113449  -100593   -44553   -37251   -64090   -78010   -93079 
 -109749  -115884  -111435  -133020  -145974  -131421  -127527  -123588 
 -114508  -160104  -167649   -97893     9341    45899   -63854  -177753 
